area_code,CBSA Title,fips_state,county,state_proper,division,region,state_abbr,state
20100,"Dover, DE",10,1,Delaware,South Atlantic Division,South Region,DE,10
37980,"Philadelphia-Camden-Wilmington, PA-NJ-DE-MD",10,3,Delaware,Middle Atlantic Division,Northeast Region,DE,42
41540,"Salisbury, MD-DE",10,5,Delaware,South Atlantic Division,South Region,DE,24
33860,"Montgomery, AL",1,1,Alabama,East South Central Division,South Region,AL,1
33860,"Montgomery, AL",1,101,Alabama,East South Central Division,South Region,AL,1
19460,"Decatur, AL",1,103,Alabama,East South Central Division,South Region,AL,1
46220,"Tuscaloosa, AL",1,107,Alabama,East South Central Division,South Region,AL,1
45980,"Troy, AL",1,109,Alabama,East South Central Division,South Region,AL,1
47900,"Washington-Arlington-Alexandria, DC-VA-MD-WV",11,1,District of Columbia,South Atlantic Division,South Region,DC,11
17980,"Columbus, GA-AL",1,113,Alabama,South Atlantic Division,South Region,AL,13
13820,"Birmingham-Hoover, AL",1,115,Alabama,East South Central Division,South Region,AL,1
13820,"Birmingham-Hoover, AL",1,117,Alabama,East South Central Division,South Region,AL,1
45180,"Talladega-Sylacauga, AL",1,121,Alabama,East South Central Division,South Region,AL,1
10760,"Alexander City, AL",1,123,Alabama,East South Central Division,South Region,AL,1
46220,"Tuscaloosa, AL",1,125,Alabama,East South Central Division,South Region,AL,1
13820,"Birmingham-Hoover, AL",1,127,Alabama,East South Central Division,South Region,AL,1
11500,"Anniston-Oxford-Jacksonville, AL",1,15,Alabama,East South Central Division,South Region,AL,1
46740,"Valley, AL",1,17,Alabama,East South Central Division,South Region,AL,1
13820,"Birmingham-Hoover, AL",1,21,Alabama,East South Central Division,South Region,AL,1
23540,"Gainesville, FL",12,1,Florida,South Atlantic Division,South Region,FL,12
45300,"Tampa-St. Petersburg-Clearwater, FL",12,101,Florida,South Atlantic Division,South Region,FL,12
45300,"Tampa-St. Petersburg-Clearwater, FL",12,103,Florida,South Atlantic Division,South Region,FL,12
29460,"Lakeland-Winter Haven, FL",12,105,Florida,South Atlantic Division,South Region,FL,12
37260,"Palatka, FL",12,107,Florida,South Atlantic Division,South Region,FL,12
27260,"Jacksonville, FL",12,109,Florida,South Atlantic Division,South Region,FL,12
33100,"Miami-Fort Lauderdale-West Palm Beach, FL",12,11,Florida,South Atlantic Division,South Region,FL,12
38940,"Port St. Lucie, FL",12,111,Florida,South Atlantic Division,South Region,FL,12
37860,"Pensacola-Ferry Pass-Brent, FL",12,113,Florida,South Atlantic Division,South Region,FL,12
35840,"North Port-Sarasota-Bradenton, FL",12,115,Florida,South Atlantic Division,South Region,FL,12
36740,"Orlando-Kissimmee-Sanford, FL",12,117,Florida,South Atlantic Division,South Region,FL,12
45540,"The Villages, FL",12,119,Florida,South Atlantic Division,South Region,FL,12
19660,"Deltona-Daytona Beach-Ormond Beach, FL",12,127,Florida,South Atlantic Division,South Region,FL,12
45220,"Tallahassee, FL",12,129,Florida,South Atlantic Division,South Region,FL,12
18880,"Crestview-Fort Walton Beach-Destin, FL",12,131,Florida,South Atlantic Division,South Region,FL,12
39460,"Punta Gorda, FL",12,15,Florida,South Atlantic Division,South Region,FL,12
26140,"Homosassa Springs, FL",12,17,Florida,South Atlantic Division,South Region,FL,12
27260,"Jacksonville, FL",12,19,Florida,South Atlantic Division,South Region,FL,12
34940,"Naples-Immokalee-Marco Island, FL",12,21,Florida,South Atlantic Division,South Region,FL,12
29380,"Lake City, FL",12,23,Florida,South Atlantic Division,South Region,FL,12
11580,"Arcadia, FL",12,27,Florida,South Atlantic Division,South Region,FL,12
27260,"Jacksonville, FL",12,3,Florida,South Atlantic Division,South Region,FL,12
27260,"Jacksonville, FL",12,31,Florida,South Atlantic Division,South Region,FL,12
37860,"Pensacola-Ferry Pass-Brent, FL",12,33,Florida,South Atlantic Division,South Region,FL,12
19660,"Deltona-Daytona Beach-Ormond Beach, FL",12,35,Florida,South Atlantic Division,South Region,FL,12
45220,"Tallahassee, FL",12,39,Florida,South Atlantic Division,South Region,FL,12
23540,"Gainesville, FL",12,41,Florida,South Atlantic Division,South Region,FL,12
37460,"Panama City, FL",12,45,Florida,South Atlantic Division,South Region,FL,12
48100,"Wauchula, FL",12,49,Florida,South Atlantic Division,South Region,FL,12
37460,"Panama City, FL",12,5,Florida,South Atlantic Division,South Region,FL,12
17500,"Clewiston, FL",12,51,Florida,South Atlantic Division,South Region,FL,12
45300,"Tampa-St. Petersburg-Clearwater, FL",12,53,Florida,South Atlantic Division,South Region,FL,12
42700,"Sebring, FL",12,55,Florida,South Atlantic Division,South Region,FL,12
45300,"Tampa-St. Petersburg-Clearwater, FL",12,57,Florida,South Atlantic Division,South Region,FL,12
42680,"Sebastian-Vero Beach, FL",12,61,Florida,South Atlantic Division,South Region,FL,12
45220,"Tallahassee, FL",12,65,Florida,South Atlantic Division,South Region,FL,12
36740,"Orlando-Kissimmee-Sanford, FL",12,69,Florida,South Atlantic Division,South Region,FL,12
15980,"Cape Coral-Fort Myers, FL",12,71,Florida,South Atlantic Division,South Region,FL,12
45220,"Tallahassee, FL",12,73,Florida,South Atlantic Division,South Region,FL,12
35840,"North Port-Sarasota-Bradenton, FL",12,81,Florida,South Atlantic Division,South Region,FL,12
36100,"Ocala, FL",12,83,Florida,South Atlantic Division,South Region,FL,12
38940,"Port St. Lucie, FL",12,85,Florida,South Atlantic Division,South Region,FL,12
33100,"Miami-Fort Lauderdale-West Palm Beach, FL",12,86,Florida,South Atlantic Division,South Region,FL,12
28580,"Key West, FL",12,87,Florida,South Atlantic Division,South Region,FL,12
27260,"Jacksonville, FL",12,89,Florida,South Atlantic Division,South Region,FL,12
37340,"Palm Bay-Melbourne-Titusville, FL",12,9,Florida,South Atlantic Division,South Region,FL,12
18880,"Crestview-Fort Walton Beach-Destin, FL",12,91,Florida,South Atlantic Division,South Region,FL,12
36380,"Okeechobee, FL",12,93,Florida,South Atlantic Division,South Region,FL,12
36740,"Orlando-Kissimmee-Sanford, FL",12,95,Florida,South Atlantic Division,South Region,FL,12
36740,"Orlando-Kissimmee-Sanford, FL",12,97,Florida,South Atlantic Division,South Region,FL,12
33100,"Miami-Fort Lauderdale-West Palm Beach, FL",12,99,Florida,South Atlantic Division,South Region,FL,12
19300,"Daphne-Fairhope-Foley, AL",1,3,Alabama,East South Central Division,South Region,AL,1
21460,"Enterprise, AL",1,31,Alabama,East South Central Division,South Region,AL,1
46660,"Valdosta, GA",13,101,Georgia,South Atlantic Division,South Region,GA,13
42340,"Savannah, GA",13,103,Georgia,South Atlantic Division,South Region,GA,13
12060,"Atlanta-Sandy Springs-Roswell, GA",13,113,Georgia,South Atlantic Division,South Region,GA,13
40660,"Rome, GA",13,115,Georgia,South Atlantic Division,South Region,GA,13
12060,"Atlanta-Sandy Springs-Roswell, GA",13,117,Georgia,South Atlantic Division,South Region,GA,13
12060,"Atlanta-Sandy Springs-Roswell, GA",13,121,Georgia,South Atlantic Division,South Region,GA,13
15260,"Brunswick, GA",13,127,Georgia,South Atlantic Division,South Region,GA,13
15660,"Calhoun, GA",13,129,Georgia,South Atlantic Division,South Region,GA,13
12060,"Atlanta-Sandy Springs-Roswell, GA",13,13,Georgia,South Atlantic Division,South Region,GA,13
12060,"Atlanta-Sandy Springs-Roswell, GA",13,135,Georgia,South Atlantic Division,South Region,GA,13
18460,"Cornelia, GA",13,137,Georgia,South Atlantic Division,South Region,GA,13
23580,"Gainesville, GA",13,139,Georgia,South Atlantic Division,South Region,GA,13
33300,"Milledgeville, GA",13,141,Georgia,South Atlantic Division,South Region,GA,13
12060,"Atlanta-Sandy Springs-Roswell, GA",13,143,Georgia,South Atlantic Division,South Region,GA,13
17980,"Columbus, GA-AL",13,145,Georgia,South Atlantic Division,South Region,GA,13
12060,"Atlanta-Sandy Springs-Roswell, GA",13,149,Georgia,South Atlantic Division,South Region,GA,13
12060,"Atlanta-Sandy Springs-Roswell, GA",13,15,Georgia,South Atlantic Division,South Region,GA,13
12060,"Atlanta-Sandy Springs-Roswell, GA",13,151,Georgia,South Atlantic Division,South Region,GA,13
47580,"Warner Robins, GA",13,153,Georgia,South Atlantic Division,South Region,GA,13
27600,"Jefferson, GA",13,157,Georgia,South Atlantic Division,South Region,GA,13
12060,"Atlanta-Sandy Springs-Roswell, GA",13,159,Georgia,South Atlantic Division,South Region,GA,13
20140,"Dublin, GA",13,167,Georgia,South Atlantic Division,South Region,GA,13
31420,"Macon-Bibb County, GA",13,169,Georgia,South Atlantic Division,South Region,GA,13
22340,"Fitzgerald, GA",13,17,Georgia,South Atlantic Division,South Region,GA,13
12060,"Atlanta-Sandy Springs-Roswell, GA",13,171,Georgia,South Atlantic Division,South Region,GA,13
46660,"Valdosta, GA",13,173,Georgia,South Atlantic Division,South Region,GA,13
20140,"Dublin, GA",13,175,Georgia,South Atlantic Division,South Region,GA,13
10500,"Albany, GA",13,177,Georgia,South Atlantic Division,South Region,GA,13
25980,"Hinesville, GA",13,179,Georgia,South Atlantic Division,South Region,GA,13
12260,"Augusta-Richmond County, GA-SC",13,181,Georgia,South Atlantic Division,South Region,GA,13
25980,"Hinesville, GA",13,183,Georgia,South Atlantic Division,South Region,GA,13
46660,"Valdosta, GA",13,185,Georgia,South Atlantic Division,South Region,GA,13
12260,"Augusta-Richmond County, GA-SC",13,189,Georgia,South Atlantic Division,South Region,GA,13
15260,"Brunswick, GA",13,191,Georgia,South Atlantic Division,South Region,GA,13
12020,"Athens-Clarke County, GA",13,195,Georgia,South Atlantic Division,South Region,GA,13
17980,"Columbus, GA-AL",13,197,Georgia,South Atlantic Division,South Region,GA,13
12060,"Atlanta-Sandy Springs-Roswell, GA",13,199,Georgia,South Atlantic Division,South Region,GA,13
31420,"Macon-Bibb County, GA",13,207,Georgia,South Atlantic Division,South Region,GA,13
47080,"Vidalia, GA",13,209,Georgia,South Atlantic Division,South Region,GA,13
31420,"Macon-Bibb County, GA",13,21,Georgia,South Atlantic Division,South Region,GA,13
12060,"Atlanta-Sandy Springs-Roswell, GA",13,211,Georgia,South Atlantic Division,South Region,GA,13
19140,"Dalton, GA",13,213,Georgia,South Atlantic Division,South Region,GA,13
17980,"Columbus, GA-AL",13,215,Georgia,South Atlantic Division,South Region,GA,13
12060,"Atlanta-Sandy Springs-Roswell, GA",13,217,Georgia,South Atlantic Division,South Region,GA,13
12020,"Athens-Clarke County, GA",13,219,Georgia,South Atlantic Division,South Region,GA,13
12020,"Athens-Clarke County, GA",13,221,Georgia,South Atlantic Division,South Region,GA,13
12060,"Atlanta-Sandy Springs-Roswell, GA",13,223,Georgia,South Atlantic Division,South Region,GA,13
47580,"Warner Robins, GA",13,225,Georgia,South Atlantic Division,South Region,GA,13
12060,"Atlanta-Sandy Springs-Roswell, GA",13,227,Georgia,South Atlantic Division,South Region,GA,13
48180,"Waycross, GA",13,229,Georgia,South Atlantic Division,South Region,GA,13
12060,"Atlanta-Sandy Springs-Roswell, GA",13,231,Georgia,South Atlantic Division,South Region,GA,13
16340,"Cedartown, GA",13,233,Georgia,South Atlantic Division,South Region,GA,13
47580,"Warner Robins, GA",13,235,Georgia,South Atlantic Division,South Region,GA,13
21640,"Eufaula, AL-GA",13,239,Georgia,South Atlantic Division,South Region,GA,1
12260,"Augusta-Richmond County, GA-SC",13,245,Georgia,South Atlantic Division,South Region,GA,13
12060,"Atlanta-Sandy Springs-Roswell, GA",13,247,Georgia,South Atlantic Division,South Region,GA,13
11140,"Americus, GA",13,249,Georgia,South Atlantic Division,South Region,GA,13
15260,"Brunswick, GA",13,25,Georgia,South Atlantic Division,South Region,GA,13
12060,"Atlanta-Sandy Springs-Roswell, GA",13,255,Georgia,South Atlantic Division,South Region,GA,13
45740,"Toccoa, GA",13,257,Georgia,South Atlantic Division,South Region,GA,13
11140,"Americus, GA",13,261,Georgia,South Atlantic Division,South Region,GA,13
46660,"Valdosta, GA",13,27,Georgia,South Atlantic Division,South Region,GA,13
10500,"Albany, GA",13,273,Georgia,South Atlantic Division,South Region,GA,13
45620,"Thomasville, GA",13,275,Georgia,South Atlantic Division,South Region,GA,13
45700,"Tifton, GA",13,277,Georgia,South Atlantic Division,South Region,GA,13
47080,"Vidalia, GA",13,279,Georgia,South Atlantic Division,South Region,GA,13
29300,"LaGrange, GA",13,285,Georgia,South Atlantic Division,South Region,GA,13
31420,"Macon-Bibb County, GA",13,289,Georgia,South Atlantic Division,South Region,GA,13
42340,"Savannah, GA",13,29,Georgia,South Atlantic Division,South Region,GA,13
45580,"Thomaston, GA",13,293,Georgia,South Atlantic Division,South Region,GA,13
16860,"Chattanooga, TN-GA",13,295,Georgia,East South Central Division,South Region,GA,47
12060,"Atlanta-Sandy Springs-Roswell, GA",13,297,Georgia,South Atlantic Division,South Region,GA,13
48180,"Waycross, GA",13,299,Georgia,South Atlantic Division,South Region,GA,13
22520,"Florence-Muscle Shoals, AL",1,33,Alabama,East South Central Division,South Region,AL,1
27700,"Jesup, GA",13,305,Georgia,South Atlantic Division,South Region,GA,13
44340,"Statesboro, GA",13,31,Georgia,South Atlantic Division,South Region,GA,13
19140,"Dalton, GA",13,313,Georgia,South Atlantic Division,South Region,GA,13
10500,"Albany, GA",13,321,Georgia,South Atlantic Division,South Region,GA,13
12260,"Augusta-Richmond County, GA-SC",13,33,Georgia,South Atlantic Division,South Region,GA,13
12060,"Atlanta-Sandy Springs-Roswell, GA",13,35,Georgia,South Atlantic Division,South Region,GA,13
41220,"St. Marys, GA",13,39,Georgia,South Atlantic Division,South Region,GA,13
12060,"Atlanta-Sandy Springs-Roswell, GA",13,45,Georgia,South Atlantic Division,South Region,GA,13
16860,"Chattanooga, TN-GA",13,47,Georgia,East South Central Division,South Region,GA,47
42340,"Savannah, GA",13,51,Georgia,South Atlantic Division,South Region,GA,13
17980,"Columbus, GA-AL",13,53,Georgia,South Atlantic Division,South Region,GA,13
44900,"Summerville, GA",13,55,Georgia,South Atlantic Division,South Region,GA,13
12060,"Atlanta-Sandy Springs-Roswell, GA",13,57,Georgia,South Atlantic Division,South Region,GA,13
12020,"Athens-Clarke County, GA",13,59,Georgia,South Atlantic Division,South Region,GA,13
12060,"Atlanta-Sandy Springs-Roswell, GA",13,63,Georgia,South Atlantic Division,South Region,GA,13
12060,"Atlanta-Sandy Springs-Roswell, GA",13,67,Georgia,South Atlantic Division,South Region,GA,13
20060,"Douglas, GA",13,69,Georgia,South Atlantic Division,South Region,GA,13
10500,"Albany, GA",13,7,Georgia,South Atlantic Division,South Region,GA,13
45180,"Talladega-Sylacauga, AL",1,37,Alabama,East South Central Division,South Region,AL,1
34220,"Moultrie, GA",13,71,Georgia,South Atlantic Division,South Region,GA,13
12260,"Augusta-Richmond County, GA-SC",13,73,Georgia,South Atlantic Division,South Region,GA,13
12060,"Atlanta-Sandy Springs-Roswell, GA",13,77,Georgia,South Atlantic Division,South Region,GA,13
31420,"Macon-Bibb County, GA",13,79,Georgia,South Atlantic Division,South Region,GA,13
18380,"Cordele, GA",13,81,Georgia,South Atlantic Division,South Region,GA,13
16860,"Chattanooga, TN-GA",13,83,Georgia,East South Central Division,South Region,GA,47
12060,"Atlanta-Sandy Springs-Roswell, GA",13,85,Georgia,South Atlantic Division,South Region,GA,13
12460,"Bainbridge, GA",13,87,Georgia,South Atlantic Division,South Region,GA,13
12060,"Atlanta-Sandy Springs-Roswell, GA",13,89,Georgia,South Atlantic Division,South Region,GA,13
33300,"Milledgeville, GA",13,9,Georgia,South Atlantic Division,South Region,GA,13
10500,"Albany, GA",13,95,Georgia,South Atlantic Division,South Region,GA,13
12060,"Atlanta-Sandy Springs-Roswell, GA",13,97,Georgia,South Atlantic Division,South Region,GA,13
18980,"Cullman, AL",1,43,Alabama,East South Central Division,South Region,AL,1
37120,"Ozark, AL",1,45,Alabama,East South Central Division,South Region,AL,1
42820,"Selma, AL",1,47,Alabama,East South Central Division,South Region,AL,1
22840,"Fort Payne, AL",1,49,Alabama,East South Central Division,South Region,AL,1
21640,"Eufaula, AL-GA",1,5,Alabama,East South Central Division,South Region,AL,1
25900,"Hilo, HI",15,1,Hawaii,Pacific Division,West Region,HI,15
33860,"Montgomery, AL",1,51,Alabama,East South Central Division,South Region,AL,1
12120,"Atmore, AL",1,53,Alabama,East South Central Division,South Region,AL,1
46520,"Urban Honolulu, HI",15,3,Hawaii,Pacific Division,West Region,HI,15
23460,"Gadsden, AL",1,55,Alabama,East South Central Division,South Region,AL,1
27980,"Kahului-Wailuku-Lahaina, HI",15,5,Hawaii,Pacific Division,West Region,HI,15
28180,"Kapaa, HI",15,7,Hawaii,Pacific Division,West Region,HI,15
27980,"Kahului-Wailuku-Lahaina, HI",15,9,Hawaii,Pacific Division,West Region,HI,15
14260,"Boise City, ID",16,1,Idaho,Mountain Division,West Region,ID,16
20020,"Dothan, AL",1,61,Alabama,East South Central Division,South Region,AL,1
13940,"Blackfoot, ID",16,11,Idaho,Mountain Division,West Region,ID,16
25200,"Hailey, ID",16,13,Idaho,Mountain Division,West Region,ID,16
14260,"Boise City, ID",16,15,Idaho,Mountain Division,West Region,ID,16
41760,"Sandpoint, ID",16,17,Idaho,Mountain Division,West Region,ID,16
26820,"Idaho Falls, ID",16,19,Idaho,Mountain Division,West Region,ID,16
26820,"Idaho Falls, ID",16,23,Idaho,Mountain Division,West Region,ID,16
25200,"Hailey, ID",16,25,Idaho,Mountain Division,West Region,ID,16
14260,"Boise City, ID",16,27,Idaho,Mountain Division,West Region,ID,16
15420,"Burley, ID",16,31,Idaho,Mountain Division,West Region,ID,16
34300,"Mountain Home, ID",16,39,Idaho,Mountain Division,West Region,ID,16
30860,"Logan, UT-ID",16,41,Idaho,Mountain Division,West Region,ID,49
39940,"Rexburg, ID",16,43,Idaho,Mountain Division,West Region,ID,16
14260,"Boise City, ID",16,45,Idaho,Mountain Division,West Region,ID,16
38540,"Pocatello, ID",16,5,Idaho,Mountain Division,West Region,ID,16
46220,"Tuscaloosa, AL",1,65,Alabama,East South Central Division,South Region,AL,1
26820,"Idaho Falls, ID",16,51,Idaho,Mountain Division,West Region,ID,16
46300,"Twin Falls, ID",16,53,Idaho,Mountain Division,West Region,ID,16
17660,"Coeur d'Alene, ID",16,55,Idaho,Mountain Division,West Region,ID,16
34140,"Moscow, ID",16,57,Idaho,Mountain Division,West Region,ID,16
25200,"Hailey, ID",16,63,Idaho,Mountain Division,West Region,ID,16
39940,"Rexburg, ID",16,65,Idaho,Mountain Division,West Region,ID,16
15420,"Burley, ID",16,67,Idaho,Mountain Division,West Region,ID,16
30300,"Lewiston, ID-WA",16,69,Idaho,Mountain Division,West Region,ID,16
20020,"Dothan, AL",1,67,Alabama,East South Central Division,South Region,AL,1
14260,"Boise City, ID",16,73,Idaho,Mountain Division,West Region,ID,16
36620,"Ontario, OR-ID",16,75,Idaho,Pacific Division,West Region,ID,41
27220,"Jackson, WY-ID",16,81,Idaho,Mountain Division,West Region,ID,56
46300,"Twin Falls, ID",16,83,Idaho,Mountain Division,West Region,ID,16
20020,"Dothan, AL",1,69,Alabama,East South Central Division,South Region,AL,1
13820,"Birmingham-Hoover, AL",1,7,Alabama,East South Central Division,South Region,AL,1
39500,"Quincy, IL-MO",17,1,Illinois,East North Central Division,Midwest Region,IL,17
42460,"Scottsboro, AL",1,71,Alabama,East South Central Division,South Region,AL,1
19940,"Dixon, IL",17,103,Illinois,East North Central Division,Midwest Region,IL,17
38700,"Pontiac, IL",17,105,Illinois,East North Central Division,Midwest Region,IL,17
30660,"Lincoln, IL",17,107,Illinois,East North Central Division,Midwest Region,IL,17
31380,"Macomb, IL",17,109,Illinois,East North Central Division,Midwest Region,IL,17
36860,"Ottawa-Peru, IL",17,11,Illinois,East North Central Division,Midwest Region,IL,17
16980,"Chicago-Naperville-Elgin, IL-IN-WI",17,111,Illinois,East North Central Division,Midwest Region,IL,17
14010,"Bloomington, IL",17,113,Illinois,East North Central Division,Midwest Region,IL,17
19500,"Decatur, IL",17,115,Illinois,East North Central Division,Midwest Region,IL,17
41180,"St. Louis, MO-IL",17,117,Illinois,West North Central Division,Midwest Region,IL,29
41180,"St. Louis, MO-IL",17,119,Illinois,West North Central Division,Midwest Region,IL,29
16460,"Centralia, IL",17,121,Illinois,East North Central Division,Midwest Region,IL,17
37900,"Peoria, IL",17,123,Illinois,East North Central Division,Midwest Region,IL,17
37140,"Paducah, KY-IL",17,127,Illinois,East North Central Division,Midwest Region,IL,21
44100,"Springfield, IL",17,129,Illinois,East North Central Division,Midwest Region,IL,17
41180,"St. Louis, MO-IL",17,13,Illinois,West North Central Division,Midwest Region,IL,29
19340,"Davenport-Moline-Rock Island, IA-IL",17,131,Illinois,West North Central Division,Midwest Region,IL,19
41180,"St. Louis, MO-IL",17,133,Illinois,West North Central Division,Midwest Region,IL,29
27300,"Jacksonville, IL",17,137,Illinois,East North Central Division,Midwest Region,IL,17
40300,"Rochelle, IL",17,141,Illinois,East North Central Division,Midwest Region,IL,17
37900,"Peoria, IL",17,143,Illinois,East North Central Division,Midwest Region,IL,17
16580,"Champaign-Urbana, IL",17,147,Illinois,East North Central Division,Midwest Region,IL,17
36860,"Ottawa-Peru, IL",17,155,Illinois,East North Central Division,Midwest Region,IL,17
19340,"Davenport-Moline-Rock Island, IA-IL",17,161,Illinois,West North Central Division,Midwest Region,IL,19
41180,"St. Louis, MO-IL",17,163,Illinois,West North Central Division,Midwest Region,IL,29
44100,"Springfield, IL",17,167,Illinois,East North Central Division,Midwest Region,IL,17
27300,"Jacksonville, IL",17,171,Illinois,East North Central Division,Midwest Region,IL,17
37900,"Peoria, IL",17,175,Illinois,East North Central Division,Midwest Region,IL,17
23300,"Freeport, IL",17,177,Illinois,East North Central Division,Midwest Region,IL,17
37900,"Peoria, IL",17,179,Illinois,East North Central Division,Midwest Region,IL,17
19180,"Danville, IL",17,183,Illinois,East North Central Division,Midwest Region,IL,17
16580,"Champaign-Urbana, IL",17,19,Illinois,East North Central Division,Midwest Region,IL,17
44580,"Sterling, IL",17,195,Illinois,East North Central Division,Midwest Region,IL,17
16980,"Chicago-Naperville-Elgin, IL-IN-WI",17,197,Illinois,East North Central Division,Midwest Region,IL,17
16060,"Carbondale-Marion, IL",17,199,Illinois,East North Central Division,Midwest Region,IL,17
40420,"Rockford, IL",17,201,Illinois,East North Central Division,Midwest Region,IL,17
37900,"Peoria, IL",17,203,Illinois,East North Central Division,Midwest Region,IL,17
45380,"Taylorville, IL",17,21,Illinois,East North Central Division,Midwest Region,IL,17
41180,"St. Louis, MO-IL",17,27,Illinois,West North Central Division,Midwest Region,IL,29
16660,"Charleston-Mattoon, IL",17,29,Illinois,East North Central Division,Midwest Region,IL,17
13820,"Birmingham-Hoover, AL",1,73,Alabama,East South Central Division,South Region,AL,1
16020,"Cape Girardeau, MO-IL",17,3,Illinois,West North Central Division,Midwest Region,IL,29
16980,"Chicago-Naperville-Elgin, IL-IN-WI",17,31,Illinois,East North Central Division,Midwest Region,IL,17
16660,"Charleston-Mattoon, IL",17,35,Illinois,East North Central Division,Midwest Region,IL,17
16980,"Chicago-Naperville-Elgin, IL-IN-WI",17,37,Illinois,East North Central Division,Midwest Region,IL,17
14010,"Bloomington, IL",17,39,Illinois,East North Central Division,Midwest Region,IL,17
16980,"Chicago-Naperville-Elgin, IL-IN-WI",17,43,Illinois,East North Central Division,Midwest Region,IL,17
20820,"Effingham, IL",17,49,Illinois,East North Central Division,Midwest Region,IL,17
41180,"St. Louis, MO-IL",17,5,Illinois,West North Central Division,Midwest Region,IL,29
16580,"Champaign-Urbana, IL",17,53,Illinois,East North Central Division,Midwest Region,IL,17
15900,"Canton, IL",17,57,Illinois,East North Central Division,Midwest Region,IL,17
16980,"Chicago-Naperville-Elgin, IL-IN-WI",17,63,Illinois,East North Central Division,Midwest Region,IL,17
22800,"Fort Madison-Keokuk, IA-IL-MO",17,67,Illinois,West North Central Division,Midwest Region,IL,19
22520,"Florence-Muscle Shoals, AL",1,77,Alabama,East South Central Division,South Region,AL,1
40420,"Rockford, IL",17,7,Illinois,East North Central Division,Midwest Region,IL,17
15460,"Burlington, IA-IL",17,71,Illinois,East North Central Division,Midwest Region,IL,17
19340,"Davenport-Moline-Rock Island, IA-IL",17,73,Illinois,West North Central Division,Midwest Region,IL,19
16060,"Carbondale-Marion, IL",17,77,Illinois,East North Central Division,Midwest Region,IL,17
34500,"Mount Vernon, IL",17,81,Illinois,East North Central Division,Midwest Region,IL,17
41180,"St. Louis, MO-IL",17,83,Illinois,West North Central Division,Midwest Region,IL,29
16980,"Chicago-Naperville-Elgin, IL-IN-WI",17,89,Illinois,East North Central Division,Midwest Region,IL,17
19460,"Decatur, AL",1,79,Alabama,East South Central Division,South Region,AL,1
28100,"Kankakee, IL",17,91,Illinois,East North Central Division,Midwest Region,IL,17
16980,"Chicago-Naperville-Elgin, IL-IN-WI",17,93,Illinois,East North Central Division,Midwest Region,IL,17
23660,"Galesburg, IL",17,95,Illinois,East North Central Division,Midwest Region,IL,17
16980,"Chicago-Naperville-Elgin, IL-IN-WI",17,97,Illinois,East North Central Division,Midwest Region,IL,17
36860,"Ottawa-Peru, IL",17,99,Illinois,East North Central Division,Midwest Region,IL,17
12220,"Auburn-Opelika, AL",1,81,Alabama,East South Central Division,South Region,AL,1
19540,"Decatur, IN",18,1,Indiana,East North Central Division,Midwest Region,IN,18
37940,"Peru, IN",18,103,Indiana,East North Central Division,Midwest Region,IN,18
14020,"Bloomington, IN",18,105,Indiana,East North Central Division,Midwest Region,IN,18
18820,"Crawfordsville, IN",18,107,Indiana,East North Central Division,Midwest Region,IN,18
26900,"Indianapolis-Carmel-Anderson, IN",18,109,Indiana,East North Central Division,Midwest Region,IN,18
26900,"Indianapolis-Carmel-Anderson, IN",18,11,Indiana,East North Central Division,Midwest Region,IN,18
16980,"Chicago-Naperville-Elgin, IL-IN-WI",18,111,Indiana,East North Central Division,Midwest Region,IN,17
28340,"Kendallville, IN",18,113,Indiana,East North Central Division,Midwest Region,IN,18
17140,"Cincinnati, OH-KY-IN",18,115,Indiana,East North Central Division,Midwest Region,IN,39
14020,"Bloomington, IN",18,119,Indiana,East North Central Division,Midwest Region,IN,18
27540,"Jasper, IN",18,125,Indiana,East North Central Division,Midwest Region,IN,18
16980,"Chicago-Naperville-Elgin, IL-IN-WI",18,127,Indiana,East North Central Division,Midwest Region,IN,17
21780,"Evansville, IN-KY",18,129,Indiana,East North Central Division,Midwest Region,IN,18
26900,"Indianapolis-Carmel-Anderson, IN",18,13,Indiana,East North Central Division,Midwest Region,IN,18
26900,"Indianapolis-Carmel-Anderson, IN",18,133,Indiana,East North Central Division,Midwest Region,IN,18
43780,"South Bend-Mishawaka, IN-MI",18,141,Indiana,East North Central Division,Midwest Region,IN,18
31140,"Louisville/Jefferson County, KY-IN",18,143,Indiana,East South Central Division,South Region,IN,21
26900,"Indianapolis-Carmel-Anderson, IN",18,145,Indiana,East North Central Division,Midwest Region,IN,18
29200,"Lafayette-West Lafayette, IN",18,15,Indiana,East North Central Division,Midwest Region,IN,18
11420,"Angola, IN",18,151,Indiana,East North Central Division,Midwest Region,IN,18
45460,"Terre Haute, IN",18,153,Indiana,East North Central Division,Midwest Region,IN,18
29200,"Lafayette-West Lafayette, IN",18,157,Indiana,East North Central Division,Midwest Region,IN,18
17140,"Cincinnati, OH-KY-IN",18,161,Indiana,East North Central Division,Midwest Region,IN,39
21780,"Evansville, IN-KY",18,163,Indiana,East North Central Division,Midwest Region,IN,18
45460,"Terre Haute, IN",18,165,Indiana,East North Central Division,Midwest Region,IN,18
45460,"Terre Haute, IN",18,167,Indiana,East North Central Division,Midwest Region,IN,18
47340,"Wabash, IN",18,169,Indiana,East North Central Division,Midwest Region,IN,18
30900,"Logansport, IN",18,17,Indiana,East North Central Division,Midwest Region,IN,18
21780,"Evansville, IN-KY",18,173,Indiana,East North Central Division,Midwest Region,IN,18
31140,"Louisville/Jefferson County, KY-IN",18,175,Indiana,East South Central Division,South Region,IN,21
39980,"Richmond, IN",18,177,Indiana,East North Central Division,Midwest Region,IN,18
23060,"Fort Wayne, IN",18,179,Indiana,East North Central Division,Midwest Region,IN,18
23060,"Fort Wayne, IN",18,183,Indiana,East North Central Division,Midwest Region,IN,18
31140,"Louisville/Jefferson County, KY-IN",18,19,Indiana,East South Central Division,South Region,IN,21
45460,"Terre Haute, IN",18,21,Indiana,East North Central Division,Midwest Region,IN,18
23140,"Frankfort, IN",18,23,Indiana,East North Central Division,Midwest Region,IN,18
47780,"Washington, IN",18,27,Indiana,East North Central Division,Midwest Region,IN,18
17140,"Cincinnati, OH-KY-IN",18,29,Indiana,East North Central Division,Midwest Region,IN,39
23060,"Fort Wayne, IN",18,3,Indiana,East North Central Division,Midwest Region,IN,18
26620,"Huntsville, AL",1,83,Alabama,East South Central Division,South Region,AL,1
24700,"Greensburg, IN",18,31,Indiana,East North Central Division,Midwest Region,IN,18
12140,"Auburn, IN",18,33,Indiana,East North Central Division,Midwest Region,IN,18
34620,"Muncie, IN",18,35,Indiana,East North Central Division,Midwest Region,IN,18
27540,"Jasper, IN",18,37,Indiana,East North Central Division,Midwest Region,IN,18
21140,"Elkhart-Goshen, IN",18,39,Indiana,East North Central Division,Midwest Region,IN,18
18220,"Connersville, IN",18,41,Indiana,East North Central Division,Midwest Region,IN,18
31140,"Louisville/Jefferson County, KY-IN",18,43,Indiana,East South Central Division,South Region,IN,21
18020,"Columbus, IN",18,5,Indiana,East North Central Division,Midwest Region,IN,18
33860,"Montgomery, AL",1,85,Alabama,East South Central Division,South Region,AL,1
31980,"Marion, IN",18,53,Indiana,East North Central Division,Midwest Region,IN,18
26900,"Indianapolis-Carmel-Anderson, IN",18,57,Indiana,East North Central Division,Midwest Region,IN,18
26900,"Indianapolis-Carmel-Anderson, IN",18,59,Indiana,East North Central Division,Midwest Region,IN,18
31140,"Louisville/Jefferson County, KY-IN",18,61,Indiana,East South Central Division,South Region,IN,21
26900,"Indianapolis-Carmel-Anderson, IN",18,63,Indiana,East North Central Division,Midwest Region,IN,18
35220,"New Castle, IN",18,65,Indiana,East North Central Division,Midwest Region,IN,18
29020,"Kokomo, IN",18,67,Indiana,East North Central Division,Midwest Region,IN,18
26540,"Huntington, IN",18,69,Indiana,East North Central Division,Midwest Region,IN,18
29200,"Lafayette-West Lafayette, IN",18,7,Indiana,East North Central Division,Midwest Region,IN,18
42980,"Seymour, IN",18,71,Indiana,East North Central Division,Midwest Region,IN,18
16980,"Chicago-Naperville-Elgin, IL-IN-WI",18,73,Indiana,East North Central Division,Midwest Region,IN,17
31500,"Madison, IN",18,77,Indiana,East North Central Division,Midwest Region,IN,18
35860,"North Vernon, IN",18,79,Indiana,East North Central Division,Midwest Region,IN,18
26900,"Indianapolis-Carmel-Anderson, IN",18,81,Indiana,East North Central Division,Midwest Region,IN,18
47180,"Vincennes, IN",18,83,Indiana,East North Central Division,Midwest Region,IN,18
47700,"Warsaw, IN",18,85,Indiana,East North Central Division,Midwest Region,IN,18
16980,"Chicago-Naperville-Elgin, IL-IN-WI",18,89,Indiana,East North Central Division,Midwest Region,IN,17
26620,"Huntsville, AL",1,89,Alabama,East South Central Division,South Region,AL,1
33140,"Michigan City-La Porte, IN",18,91,Indiana,East North Central Division,Midwest Region,IN,18
13260,"Bedford, IN",18,93,Indiana,East North Central Division,Midwest Region,IN,18
26900,"Indianapolis-Carmel-Anderson, IN",18,95,Indiana,East North Central Division,Midwest Region,IN,18
26900,"Indianapolis-Carmel-Anderson, IN",18,97,Indiana,East North Central Division,Midwest Region,IN,18
38500,"Plymouth, IN",18,99,Indiana,East North Central Division,Midwest Region,IN,18
13820,"Birmingham-Hoover, AL",1,9,Alabama,East South Central Division,South Region,AL,1
21840,"Fairfield, IA",19,101,Iowa,West North Central Division,Midwest Region,IA,19
26980,"Iowa City, IA",19,103,Iowa,West North Central Division,Midwest Region,IA,19
16300,"Cedar Rapids, IA",19,105,Iowa,West North Central Division,Midwest Region,IA,19
16300,"Cedar Rapids, IA",19,11,Iowa,West North Central Division,Midwest Region,IA,19
22800,"Fort Madison-Keokuk, IA-IL-MO",19,111,Iowa,West North Central Division,Midwest Region,IA,19
16300,"Cedar Rapids, IA",19,113,Iowa,West North Central Division,Midwest Region,IA,19
19780,"Des Moines-West Des Moines, IA",19,121,Iowa,West North Central Division,Midwest Region,IA,19
36820,"Oskaloosa, IA",19,123,Iowa,West North Central Division,Midwest Region,IA,19
37800,"Pella, IA",19,125,Iowa,West North Central Division,Midwest Region,IA,19
32260,"Marshalltown, IA",19,127,Iowa,West North Central Division,Midwest Region,IA,19
36540,"Omaha-Council Bluffs, NE-IA",19,129,Iowa,West North Central Division,Midwest Region,IA,31
47940,"Waterloo-Cedar Falls, IA",19,13,Iowa,West North Central Division,Midwest Region,IA,19
34700,"Muscatine, IA",19,139,Iowa,West North Central Division,Midwest Region,IA,19
43580,"Sioux City, IA-NE-SD",19,149,Iowa,West North Central Division,Midwest Region,IA,19
14340,"Boone, IA",19,15,Iowa,West North Central Division,Midwest Region,IA,19
19780,"Des Moines-West Des Moines, IA",19,153,Iowa,West North Central Division,Midwest Region,IA,19
36540,"Omaha-Council Bluffs, NE-IA",19,155,Iowa,West North Central Division,Midwest Region,IA,31
19340,"Davenport-Moline-Rock Island, IA-IL",19,163,Iowa,West North Central Division,Midwest Region,IA,19
11180,"Ames, IA",19,169,Iowa,West North Central Division,Midwest Region,IA,19
47940,"Waterloo-Cedar Falls, IA",19,17,Iowa,West North Central Division,Midwest Region,IA,19
36900,"Ottumwa, IA",19,179,Iowa,West North Central Division,Midwest Region,IA,19
19780,"Des Moines-West Des Moines, IA",19,181,Iowa,West North Central Division,Midwest Region,IA,19
26980,"Iowa City, IA",19,183,Iowa,West North Central Division,Midwest Region,IA,19
22700,"Fort Dodge, IA",19,187,Iowa,West North Central Division,Midwest Region,IA,19
43580,"Sioux City, IA-NE-SD",19,193,Iowa,West North Central Division,Midwest Region,IA,19
32380,"Mason City, IA",19,195,Iowa,West North Central Division,Midwest Region,IA,19
44740,"Storm Lake, IA",19,21,Iowa,West North Central Division,Midwest Region,IA,19
16140,"Carroll, IA",19,27,Iowa,West North Central Division,Midwest Region,IA,19
32380,"Mason City, IA",19,33,Iowa,West North Central Division,Midwest Region,IA,19
43980,"Spencer, IA",19,41,Iowa,West North Central Division,Midwest Region,IA,19
17540,"Clinton, IA",19,45,Iowa,West North Central Division,Midwest Region,IA,19
19780,"Des Moines-West Des Moines, IA",19,49,Iowa,West North Central Division,Midwest Region,IA,19
10700,"Albertville, AL",1,95,Alabama,East South Central Division,South Region,AL,1
36900,"Ottumwa, IA",19,51,Iowa,West North Central Division,Midwest Region,IA,19
15460,"Burlington, IA-IL",19,57,Iowa,West North Central Division,Midwest Region,IA,17
44020,"Spirit Lake, IA",19,59,Iowa,West North Central Division,Midwest Region,IA,19
20220,"Dubuque, IA",19,61,Iowa,West North Central Division,Midwest Region,IA,19
33660,"Mobile, AL",1,97,Alabama,East South Central Division,South Region,AL,1
47940,"Waterloo-Cedar Falls, IA",19,75,Iowa,West North Central Division,Midwest Region,IA,19
19780,"Des Moines-West Des Moines, IA",19,77,Iowa,West North Central Division,Midwest Region,IA,19
36540,"Omaha-Council Bluffs, NE-IA",19,85,Iowa,West North Central Division,Midwest Region,IA,31
35500,"Newton, IA",19,99,Iowa,West North Central Division,Midwest Region,IA,19
28140,"Kansas City, MO-KS",20,103,Kansas,West North Central Division,Midwest Region,KS,29
28140,"Kansas City, MO-KS",20,107,Kansas,West North Central Division,Midwest Region,KS,29
21380,"Emporia, KS",20,111,Kansas,West North Central Division,Midwest Region,KS,20
32700,"McPherson, KS",20,113,Kansas,West North Central Division,Midwest Region,KS,20
28140,"Kansas City, MO-KS",20,121,Kansas,West North Central Division,Midwest Region,KS,29
17700,"Coffeyville, KS",20,125,Kansas,West North Central Division,Midwest Region,KS,20
45820,"Topeka, KS",20,139,Kansas,West North Central Division,Midwest Region,KS,20
41460,"Salina, KS",20,143,Kansas,West North Central Division,Midwest Region,KS,20
31740,"Manhattan, KS",20,149,Kansas,West North Central Division,Midwest Region,KS,20
48620,"Wichita, KS",20,15,Kansas,West North Central Division,Midwest Region,KS,20
26740,"Hutchinson, KS",20,155,Kansas,West North Central Division,Midwest Region,KS,20
31740,"Manhattan, KS",20,161,Kansas,West North Central Division,Midwest Region,KS,20
41460,"Salina, KS",20,169,Kansas,West North Central Division,Midwest Region,KS,20
48620,"Wichita, KS",20,173,Kansas,West North Central Division,Midwest Region,KS,20
30580,"Liberal, KS",20,175,Kansas,West North Central Division,Midwest Region,KS,20
45820,"Topeka, KS",20,177,Kansas,West North Central Division,Midwest Region,KS,20
48620,"Wichita, KS",20,191,Kansas,West North Central Division,Midwest Region,KS,20
45820,"Topeka, KS",20,197,Kansas,West North Central Division,Midwest Region,KS,20
28140,"Kansas City, MO-KS",20,209,Kansas,West North Central Division,Midwest Region,KS,29
11680,"Arkansas City-Winfield, KS",20,35,Kansas,West North Central Division,Midwest Region,KS,20
38260,"Pittsburg, KS",20,37,Kansas,West North Central Division,Midwest Region,KS,20
41140,"St. Joseph, MO-KS",20,43,Kansas,West North Central Division,Midwest Region,KS,29
29940,"Lawrence, KS",20,45,Kansas,West North Central Division,Midwest Region,KS,20
11860,"Atchison, KS",20,5,Kansas,West North Central Division,Midwest Region,KS,20
25700,"Hays, KS",20,51,Kansas,West North Central Division,Midwest Region,KS,20
23780,"Garden City, KS",20,55,Kansas,West North Central Division,Midwest Region,KS,20
19980,"Dodge City, KS",20,57,Kansas,West North Central Division,Midwest Region,KS,20
36840,"Ottawa, KS",20,59,Kansas,West North Central Division,Midwest Region,KS,20
27920,"Junction City, KS",20,61,Kansas,West North Central Division,Midwest Region,KS,20
48620,"Wichita, KS",20,79,Kansas,West North Central Division,Midwest Region,KS,20
45820,"Topeka, KS",20,85,Kansas,West North Central Division,Midwest Region,KS,20
45820,"Topeka, KS",20,87,Kansas,West North Central Division,Midwest Region,KS,20
24460,"Great Bend, KS",20,9,Kansas,West North Central Division,Midwest Region,KS,20
28140,"Kansas City, MO-KS",20,91,Kansas,West North Central Division,Midwest Region,KS,29
23780,"Garden City, KS",20,93,Kansas,West North Central Division,Midwest Region,KS,20
48620,"Wichita, KS",20,95,Kansas,West North Central Division,Midwest Region,KS,20
37660,"Parsons, KS",20,99,Kansas,West North Central Division,Midwest Region,KS,20
27940,"Juneau, AK",2,110,Alaska,Pacific Division,West Region,AK,2
21780,"Evansville, IN-KY",21,101,Kentucky,East North Central Division,Midwest Region,KY,18
31140,"Louisville/Jefferson County, KY-IN",21,103,Kentucky,East South Central Division,South Region,KY,21
31580,"Madisonville, KY",21,107,Kentucky,East South Central Division,South Region,KY,21
34460,"Mount Sterling, KY",21,11,Kentucky,East South Central Division,South Region,KY,21
31140,"Louisville/Jefferson County, KY-IN",21,111,Kentucky,East South Central Division,South Region,KY,21
30460,"Lexington-Fayette, KY",21,113,Kentucky,East South Central Division,South Region,KY,21
17140,"Cincinnati, OH-KY-IN",21,117,Kentucky,East North Central Division,Midwest Region,KY,39
30940,"London, KY",21,121,Kentucky,East South Central Division,South Region,KY,21
21060,"Elizabethtown-Fort Knox, KY",21,123,Kentucky,East South Central Division,South Region,KY,21
30940,"London, KY",21,125,Kentucky,East South Central Division,South Region,KY,21
33180,"Middlesborough, KY",21,13,Kentucky,East South Central Division,South Region,KY,21
19220,"Danville, KY",21,137,Kentucky,East South Central Division,South Region,KY,21
37140,"Paducah, KY-IL",21,139,Kentucky,East South Central Division,South Region,KY,21
37140,"Paducah, KY-IL",21,145,Kentucky,East South Central Division,South Region,KY,21
36980,"Owensboro, KY",21,149,Kentucky,East South Central Division,South Region,KY,21
17140,"Cincinnati, OH-KY-IN",21,15,Kentucky,East North Central Division,Midwest Region,KY,39
40080,"Richmond-Berea, KY",21,151,Kentucky,East South Central Division,South Region,KY,21
32500,"Maysville, KY",21,161,Kentucky,East South Central Division,South Region,KY,21
21060,"Elizabethtown-Fort Knox, KY",21,163,Kentucky,East South Central Division,South Region,KY,21
34460,"Mount Sterling, KY",21,165,Kentucky,East South Central Division,South Region,KY,21
23980,"Glasgow, KY",21,169,Kentucky,East South Central Division,South Region,KY,21
30460,"Lexington-Fayette, KY",21,17,Kentucky,East South Central Division,South Region,KY,21
34460,"Mount Sterling, KY",21,173,Kentucky,East South Central Division,South Region,KY,21
16420,"Central City, KY",21,177,Kentucky,East South Central Division,South Region,KY,21
12680,"Bardstown, KY",21,179,Kentucky,East South Central Division,South Region,KY,21
31140,"Louisville/Jefferson County, KY-IN",21,185,Kentucky,East South Central Division,South Region,KY,21
26580,"Huntington-Ashland, WV-KY-OH",21,19,Kentucky,South Atlantic Division,South Region,KY,54
17140,"Cincinnati, OH-KY-IN",21,191,Kentucky,East North Central Division,Midwest Region,KY,39
43700,"Somerset, KY",21,199,Kentucky,East South Central Division,South Region,KY,21
40080,"Richmond-Berea, KY",21,203,Kentucky,East South Central Division,South Region,KY,21
30460,"Lexington-Fayette, KY",21,209,Kentucky,East South Central Division,South Region,KY,21
19220,"Danville, KY",21,21,Kentucky,East South Central Division,South Region,KY,21
31140,"Louisville/Jefferson County, KY-IN",21,211,Kentucky,East South Central Division,South Region,KY,21
31140,"Louisville/Jefferson County, KY-IN",21,215,Kentucky,East South Central Division,South Region,KY,21
15820,"Campbellsville, KY",21,217,Kentucky,East South Central Division,South Region,KY,21
17300,"Clarksville, TN-KY",21,221,Kentucky,East South Central Division,South Region,KY,47
31140,"Louisville/Jefferson County, KY-IN",21,223,Kentucky,East South Central Division,South Region,KY,21
14540,"Bowling Green, KY",21,227,Kentucky,East South Central Division,South Region,KY,21
17140,"Cincinnati, OH-KY-IN",21,23,Kentucky,East North Central Division,Midwest Region,KY,39
30940,"London, KY",21,235,Kentucky,East South Central Division,South Region,KY,21
30460,"Lexington-Fayette, KY",21,239,Kentucky,East South Central Division,South Region,KY,21
31140,"Louisville/Jefferson County, KY-IN",21,29,Kentucky,East South Central Division,South Region,KY,21
14540,"Bowling Green, KY",21,3,Kentucky,East South Central Division,South Region,KY,21
28540,"Ketchikan, AK",2,130,Alaska,Pacific Division,West Region,AK,2
14540,"Bowling Green, KY",21,31,Kentucky,East South Central Division,South Region,KY,21
34660,"Murray, KY",21,35,Kentucky,East South Central Division,South Region,KY,21
17140,"Cincinnati, OH-KY-IN",21,37,Kentucky,East North Central Division,Midwest Region,KY,39
17300,"Clarksville, TN-KY",21,47,Kentucky,East South Central Division,South Region,KY,47
30460,"Lexington-Fayette, KY",21,49,Kentucky,East South Central Division,South Region,KY,21
23180,"Frankfort, KY",21,5,Kentucky,East South Central Division,South Region,KY,21
36980,"Owensboro, KY",21,59,Kentucky,East South Central Division,South Region,KY,21
14540,"Bowling Green, KY",21,61,Kentucky,East South Central Division,South Region,KY,21
30460,"Lexington-Fayette, KY",21,67,Kentucky,East South Central Division,South Region,KY,21
37140,"Paducah, KY-IL",21,7,Kentucky,East South Central Division,South Region,KY,21
11260,"Anchorage, AK",2,170,Alaska,Pacific Division,West Region,AK,2
23180,"Frankfort, KY",21,73,Kentucky,East South Central Division,South Region,KY,21
46460,"Union City, TN-KY",21,75,Kentucky,East South Central Division,South Region,KY,47
17140,"Cincinnati, OH-KY-IN",21,77,Kentucky,East North Central Division,Midwest Region,KY,39
17140,"Cincinnati, OH-KY-IN",21,81,Kentucky,East North Central Division,Midwest Region,KY,39
32460,"Mayfield, KY",21,83,Kentucky,East South Central Division,South Region,KY,21
26580,"Huntington-Ashland, WV-KY-OH",21,89,Kentucky,South Atlantic Division,South Region,KY,54
23980,"Glasgow, KY",21,9,Kentucky,East South Central Division,South Region,KY,21
36980,"Owensboro, KY",21,91,Kentucky,East South Central Division,South Region,KY,21
21060,"Elizabethtown-Fort Knox, KY",21,93,Kentucky,East South Central Division,South Region,KY,21
11260,"Anchorage, AK",2,20,Alaska,Pacific Division,West Region,AK,2
29180,"Lafayette, LA",22,1,Louisiana,West South Central Division,South Region,LA,22
34020,"Morgan City, LA",22,101,Louisiana,West South Central Division,South Region,LA,22
35380,"New Orleans-Metairie, LA",22,103,Louisiana,West South Central Division,South Region,LA,22
25220,"Hammond, LA",22,105,Louisiana,West South Central Division,South Region,LA,22
26380,"Houma-Thibodaux, LA",22,109,Louisiana,West South Central Division,South Region,LA,22
19760,"DeRidder, LA",22,11,Louisiana,West South Central Division,South Region,LA,22
33740,"Monroe, LA",22,111,Louisiana,West South Central Division,South Region,LA,22
29180,"Lafayette, LA",22,113,Louisiana,West South Central Division,South Region,LA,22
22860,"Fort Polk South, LA",22,115,Louisiana,West South Central Division,South Region,LA,22
14220,"Bogalusa, LA",22,117,Louisiana,West South Central Division,South Region,LA,22
43340,"Shreveport-Bossier City, LA",22,119,Louisiana,West South Central Division,South Region,LA,22
12940,"Baton Rouge, LA",22,121,Louisiana,West South Central Division,South Region,LA,22
12940,"Baton Rouge, LA",22,125,Louisiana,West South Central Division,South Region,LA,22
43340,"Shreveport-Bossier City, LA",22,15,Louisiana,West South Central Division,South Region,LA,22
43340,"Shreveport-Bossier City, LA",22,17,Louisiana,West South Central Division,South Region,LA,22
29340,"Lake Charles, LA",22,19,Louisiana,West South Central Division,South Region,LA,22
29340,"Lake Charles, LA",22,23,Louisiana,West South Central Division,South Region,LA,22
35020,"Natchez, MS-LA",22,29,Louisiana,West South Central Division,South Region,LA,22
43340,"Shreveport-Bossier City, LA",22,31,Louisiana,West South Central Division,South Region,LA,22
12940,"Baton Rouge, LA",22,33,Louisiana,West South Central Division,South Region,LA,22
12940,"Baton Rouge, LA",22,37,Louisiana,West South Central Division,South Region,LA,22
10780,"Alexandria, LA",22,43,Louisiana,West South Central Division,South Region,LA,22
29180,"Lafayette, LA",22,45,Louisiana,West South Central Division,South Region,LA,22
12940,"Baton Rouge, LA",22,47,Louisiana,West South Central Division,South Region,LA,22
12940,"Baton Rouge, LA",22,5,Louisiana,West South Central Division,South Region,LA,22
35380,"New Orleans-Metairie, LA",22,51,Louisiana,West South Central Division,South Region,LA,22
27660,"Jennings, LA",22,53,Louisiana,West South Central Division,South Region,LA,22
29180,"Lafayette, LA",22,55,Louisiana,West South Central Division,South Region,LA,22
26380,"Houma-Thibodaux, LA",22,57,Louisiana,West South Central Division,South Region,LA,22
40820,"Ruston, LA",22,61,Louisiana,West South Central Division,South Region,LA,22
12940,"Baton Rouge, LA",22,63,Louisiana,West South Central Division,South Region,LA,22
12820,"Bastrop, LA",22,67,Louisiana,West South Central Division,South Region,LA,22
35060,"Natchitoches, LA",22,69,Louisiana,West South Central Division,South Region,LA,22
35380,"New Orleans-Metairie, LA",22,71,Louisiana,West South Central Division,South Region,LA,22
33740,"Monroe, LA",22,73,Louisiana,West South Central Division,South Region,LA,22
35380,"New Orleans-Metairie, LA",22,75,Louisiana,West South Central Division,South Region,LA,22
12940,"Baton Rouge, LA",22,77,Louisiana,West South Central Division,South Region,LA,22
10780,"Alexandria, LA",22,79,Louisiana,West South Central Division,South Region,LA,22
35380,"New Orleans-Metairie, LA",22,87,Louisiana,West South Central Division,South Region,LA,22
35380,"New Orleans-Metairie, LA",22,89,Louisiana,West South Central Division,South Region,LA,22
12940,"Baton Rouge, LA",22,91,Louisiana,West South Central Division,South Region,LA,22
35380,"New Orleans-Metairie, LA",22,93,Louisiana,West South Central Division,South Region,LA,22
35380,"New Orleans-Metairie, LA",22,95,Louisiana,West South Central Division,South Region,LA,22
36660,"Opelousas, LA",22,97,Louisiana,West South Central Division,South Region,LA,22
29180,"Lafayette, LA",22,99,Louisiana,West South Central Division,South Region,LA,22
30340,"Lewiston-Auburn, ME",23,1,Maine,New England Division,Northeast Region,ME,23
12300,"Augusta-Waterville, ME",23,11,Maine,New England Division,Northeast Region,ME,23
12620,"Bangor, ME",23,19,Maine,New England Division,Northeast Region,ME,23
38860,"Portland-South Portland, ME",23,23,Maine,New England Division,Northeast Region,ME,23
38860,"Portland-South Portland, ME",23,31,Maine,New England Division,Northeast Region,ME,23
38860,"Portland-South Portland, ME",23,5,Maine,New England Division,Northeast Region,ME,23
19060,"Cumberland, MD-WV",24,1,Maryland,South Atlantic Division,South Region,MD,24
12580,"Baltimore-Columbia-Towson, MD",24,13,Maryland,South Atlantic Division,South Region,MD,24
37980,"Philadelphia-Camden-Wilmington, PA-NJ-DE-MD",24,15,Maryland,Middle Atlantic Division,Northeast Region,MD,42
47900,"Washington-Arlington-Alexandria, DC-VA-MD-WV",24,17,Maryland,South Atlantic Division,South Region,MD,11
15700,"Cambridge, MD",24,19,Maryland,South Atlantic Division,South Region,MD,24
47900,"Washington-Arlington-Alexandria, DC-VA-MD-WV",24,21,Maryland,South Atlantic Division,South Region,MD,11
12580,"Baltimore-Columbia-Towson, MD",24,25,Maryland,South Atlantic Division,South Region,MD,24
12580,"Baltimore-Columbia-Towson, MD",24,27,Maryland,South Atlantic Division,South Region,MD,24
12580,"Baltimore-Columbia-Towson, MD",24,3,Maryland,South Atlantic Division,South Region,MD,24
47900,"Washington-Arlington-Alexandria, DC-VA-MD-WV",24,31,Maryland,South Atlantic Division,South Region,MD,11
47900,"Washington-Arlington-Alexandria, DC-VA-MD-WV",24,33,Maryland,South Atlantic Division,South Region,MD,11
12580,"Baltimore-Columbia-Towson, MD",24,35,Maryland,South Atlantic Division,South Region,MD,24
15680,"California-Lexington Park, MD",24,37,Maryland,South Atlantic Division,South Region,MD,24
41540,"Salisbury, MD-DE",24,39,Maryland,South Atlantic Division,South Region,MD,24
20660,"Easton, MD",24,41,Maryland,South Atlantic Division,South Region,MD,24
25180,"Hagerstown-Martinsburg, MD-WV",24,43,Maryland,South Atlantic Division,South Region,MD,24
41540,"Salisbury, MD-DE",24,45,Maryland,South Atlantic Division,South Region,MD,24
41540,"Salisbury, MD-DE",24,47,Maryland,South Atlantic Division,South Region,MD,24
12580,"Baltimore-Columbia-Towson, MD",24,5,Maryland,South Atlantic Division,South Region,MD,24
12580,"Baltimore-Columbia-Towson, MD",24,510,Maryland,South Atlantic Division,South Region,MD,24
47900,"Washington-Arlington-Alexandria, DC-VA-MD-WV",24,9,Maryland,South Atlantic Division,South Region,MD,11
12700,"Barnstable Town, MA",25,1,Massachusetts,New England Division,Northeast Region,MA,25
24640,"Greenfield Town, MA",25,11,Massachusetts,New England Division,Northeast Region,MA,25
44140,"Springfield, MA",25,13,Massachusetts,New England Division,Northeast Region,MA,25
44140,"Springfield, MA",25,15,Massachusetts,New England Division,Northeast Region,MA,25
71650,"Boston-Cambridge-Nashua, MA-NH",25,17,Massachusetts,New England Division,Northeast Region,MA,25
71650,"Boston-Cambridge-Nashua, MA-NH",25,21,Massachusetts,New England Division,Northeast Region,MA,25
71650,"Boston-Cambridge-Nashua, MA-NH",25,25,Massachusetts,New England Division,Northeast Region,MA,25
71650,"Boston-Cambridge-Nashua, MA-NH",25,27,Massachusetts,New England Division,Northeast Region,MA,25
38340,"Pittsfield, MA",25,3,Massachusetts,New England Division,Northeast Region,MA,25
71650,"Boston-Cambridge-Nashua, MA-NH",25,5,Massachusetts,New England Division,Northeast Region,MA,25
47240,"Vineyard Haven, MA",25,7,Massachusetts,New England Division,Northeast Region,MA,25
71650,"Boston-Cambridge-Nashua, MA-NH",25,9,Massachusetts,New England Division,Northeast Region,MA,25
32100,"Marquette, MI",26,103,Michigan,East North Central Division,Midwest Region,MI,26
31220,"Ludington, MI",26,105,Michigan,East North Central Division,Midwest Region,MI,26
13660,"Big Rapids, MI",26,107,Michigan,East North Central Division,Midwest Region,MI,26
31940,"Marinette, WI-MI",26,109,Michigan,East North Central Division,Midwest Region,MI,55
33220,"Midland, MI",26,111,Michigan,East North Central Division,Midwest Region,MI,26
15620,"Cadillac, MI",26,113,Michigan,East North Central Division,Midwest Region,MI,26
33780,"Monroe, MI",26,115,Michigan,East North Central Division,Midwest Region,MI,26
24340,"Grand Rapids-Wyoming, MI",26,117,Michigan,East North Central Division,Midwest Region,MI,26
34740,"Muskegon, MI",26,121,Michigan,East North Central Division,Midwest Region,MI,26
19820,"Detroit-Warren-Dearborn, MI",26,125,Michigan,East North Central Division,Midwest Region,MI,26
24340,"Grand Rapids-Wyoming, MI",26,139,Michigan,East North Central Division,Midwest Region,MI,26
40980,"Saginaw, MI",26,145,Michigan,East North Central Division,Midwest Region,MI,26
19820,"Detroit-Warren-Dearborn, MI",26,147,Michigan,East North Central Division,Midwest Region,MI,26
44780,"Sturgis, MI",26,149,Michigan,East North Central Division,Midwest Region,MI,26
24340,"Grand Rapids-Wyoming, MI",26,15,Michigan,East North Central Division,Midwest Region,MI,26
37020,"Owosso, MI",26,155,Michigan,East North Central Division,Midwest Region,MI,26
28020,"Kalamazoo-Portage, MI",26,159,Michigan,East North Central Division,Midwest Region,MI,26
11460,"Ann Arbor, MI",26,161,Michigan,East North Central Division,Midwest Region,MI,26
19820,"Detroit-Warren-Dearborn, MI",26,163,Michigan,East North Central Division,Midwest Region,MI,26
15620,"Cadillac, MI",26,165,Michigan,East North Central Division,Midwest Region,MI,26
13020,"Bay City, MI",26,17,Michigan,East North Central Division,Midwest Region,MI,26
45900,"Traverse City, MI",26,19,Michigan,East North Central Division,Midwest Region,MI,26
35660,"Niles-Benton Harbor, MI",26,21,Michigan,East North Central Division,Midwest Region,MI,26
17740,"Coldwater, MI",26,23,Michigan,East North Central Division,Midwest Region,MI,26
12980,"Battle Creek, MI",26,25,Michigan,East North Central Division,Midwest Region,MI,26
43780,"South Bend-Mishawaka, IN-MI",26,27,Michigan,East North Central Division,Midwest Region,MI,18
42300,"Sault Ste. Marie, MI",26,33,Michigan,East North Central Division,Midwest Region,MI,26
29620,"Lansing-East Lansing, MI",26,37,Michigan,East North Central Division,Midwest Region,MI,26
21540,"Escanaba, MI",26,41,Michigan,East North Central Division,Midwest Region,MI,26
27020,"Iron Mountain, MI-WI",26,43,Michigan,East North Central Division,Midwest Region,MI,26
29620,"Lansing-East Lansing, MI",26,45,Michigan,East North Central Division,Midwest Region,MI,26
22420,"Flint, MI",26,49,Michigan,East North Central Division,Midwest Region,MI,26
26090,"Holland, MI",26,5,Michigan,East North Central Division,Midwest Region,MI,26
45900,"Traverse City, MI",26,55,Michigan,East North Central Division,Midwest Region,MI,26
10940,"Alma, MI",26,57,Michigan,East North Central Division,Midwest Region,MI,26
25880,"Hillsdale, MI",26,59,Michigan,East North Central Division,Midwest Region,MI,26
26340,"Houghton, MI",26,61,Michigan,East North Central Division,Midwest Region,MI,26
29620,"Lansing-East Lansing, MI",26,65,Michigan,East North Central Division,Midwest Region,MI,26
26960,"Ionia, MI",26,67,Michigan,East North Central Division,Midwest Region,MI,26
10980,"Alpena, MI",26,7,Michigan,East North Central Division,Midwest Region,MI,26
34380,"Mount Pleasant, MI",26,73,Michigan,East North Central Division,Midwest Region,MI,26
27100,"Jackson, MI",26,75,Michigan,East North Central Division,Midwest Region,MI,26
28020,"Kalamazoo-Portage, MI",26,77,Michigan,East North Central Division,Midwest Region,MI,26
45900,"Traverse City, MI",26,79,Michigan,East North Central Division,Midwest Region,MI,26
24340,"Grand Rapids-Wyoming, MI",26,81,Michigan,East North Central Division,Midwest Region,MI,26
26340,"Houghton, MI",26,83,Michigan,East North Central Division,Midwest Region,MI,26
19820,"Detroit-Warren-Dearborn, MI",26,87,Michigan,East North Central Division,Midwest Region,MI,26
45900,"Traverse City, MI",26,89,Michigan,East North Central Division,Midwest Region,MI,26
10300,"Adrian, MI",26,91,Michigan,East North Central Division,Midwest Region,MI,26
19820,"Detroit-Warren-Dearborn, MI",26,93,Michigan,East North Central Division,Midwest Region,MI,26
19820,"Detroit-Warren-Dearborn, MI",26,99,Michigan,East North Central Division,Midwest Region,MI,26
31860,"Mankato-North Mankato, MN",27,103,Minnesota,West North Central Division,Midwest Region,MN,27
49380,"Worthington, MN",27,105,Minnesota,West North Central Division,Midwest Region,MN,27
40340,"Rochester, MN",27,109,Minnesota,West North Central Division,Midwest Region,MN,27
22260,"Fergus Falls, MN",27,111,Minnesota,West North Central Division,Midwest Region,MN,27
24220,"Grand Forks, ND-MN",27,119,Minnesota,West North Central Division,Midwest Region,MN,38
33460,"Minneapolis-St. Paul-Bloomington, MN-WI",27,123,Minnesota,West North Central Division,Midwest Region,MN,27
31860,"Mankato-North Mankato, MN",27,13,Minnesota,West North Central Division,Midwest Region,MN,27
22060,"Faribault-Northfield, MN",27,131,Minnesota,West North Central Division,Midwest Region,MN,27
20260,"Duluth, MN-WI",27,137,Minnesota,West North Central Division,Midwest Region,MN,27
33460,"Minneapolis-St. Paul-Bloomington, MN-WI",27,139,Minnesota,West North Central Division,Midwest Region,MN,27
33460,"Minneapolis-St. Paul-Bloomington, MN-WI",27,141,Minnesota,West North Central Division,Midwest Region,MN,27
33460,"Minneapolis-St. Paul-Bloomington, MN-WI",27,143,Minnesota,West North Central Division,Midwest Region,MN,27
41060,"St. Cloud, MN",27,145,Minnesota,West North Central Division,Midwest Region,MN,27
36940,"Owatonna, MN",27,147,Minnesota,West North Central Division,Midwest Region,MN,27
35580,"New Ulm, MN",27,15,Minnesota,West North Central Division,Midwest Region,MN,27
40340,"Rochester, MN",27,157,Minnesota,West North Central Division,Midwest Region,MN,27
33460,"Minneapolis-St. Paul-Bloomington, MN-WI",27,163,Minnesota,West North Central Division,Midwest Region,MN,27
47420,"Wahpeton, ND-MN",27,167,Minnesota,West North Central Division,Midwest Region,MN,38
49100,"Winona, MN",27,169,Minnesota,West North Central Division,Midwest Region,MN,27
20260,"Duluth, MN-WI",27,17,Minnesota,West North Central Division,Midwest Region,MN,27
33460,"Minneapolis-St. Paul-Bloomington, MN-WI",27,171,Minnesota,West North Central Division,Midwest Region,MN,27
33460,"Minneapolis-St. Paul-Bloomington, MN-WI",27,19,Minnesota,West North Central Division,Midwest Region,MN,27
14660,"Brainerd, MN",27,21,Minnesota,West North Central Division,Midwest Region,MN,27
33460,"Minneapolis-St. Paul-Bloomington, MN-WI",27,25,Minnesota,West North Central Division,Midwest Region,MN,27
22020,"Fargo, ND-MN",27,27,Minnesota,West North Central Division,Midwest Region,MN,38
33460,"Minneapolis-St. Paul-Bloomington, MN-WI",27,3,Minnesota,West North Central Division,Midwest Region,MN,27
14660,"Brainerd, MN",27,35,Minnesota,West North Central Division,Midwest Region,MN,27
33460,"Minneapolis-St. Paul-Bloomington, MN-WI",27,37,Minnesota,West North Central Division,Midwest Region,MN,27
40340,"Rochester, MN",27,39,Minnesota,West North Central Division,Midwest Region,MN,27
10820,"Alexandria, MN",27,41,Minnesota,West North Central Division,Midwest Region,MN,27
40340,"Rochester, MN",27,45,Minnesota,West North Central Division,Midwest Region,MN,27
10660,"Albert Lea, MN",27,47,Minnesota,West North Central Division,Midwest Region,MN,27
39860,"Red Wing, MN",27,49,Minnesota,West North Central Division,Midwest Region,MN,27
33460,"Minneapolis-St. Paul-Bloomington, MN-WI",27,53,Minnesota,West North Central Division,Midwest Region,MN,27
29100,"La Crosse-Onalaska, WI-MN",27,55,Minnesota,East North Central Division,Midwest Region,MN,55
33460,"Minneapolis-St. Paul-Bloomington, MN-WI",27,59,Minnesota,West North Central Division,Midwest Region,MN,27
24330,"Grand Rapids, MN",27,61,Minnesota,West North Central Division,Midwest Region,MN,27
48820,"Willmar, MN",27,67,Minnesota,West North Central Division,Midwest Region,MN,27
13420,"Bemidji, MN",27,7,Minnesota,West North Central Division,Midwest Region,MN,27
33460,"Minneapolis-St. Paul-Bloomington, MN-WI",27,79,Minnesota,West North Central Division,Midwest Region,MN,27
32140,"Marshall, MN",27,83,Minnesota,West North Central Division,Midwest Region,MN,27
26780,"Hutchinson, MN",27,85,Minnesota,West North Central Division,Midwest Region,MN,27
41060,"St. Cloud, MN",27,9,Minnesota,West North Central Division,Midwest Region,MN,27
21860,"Fairmont, MN",27,91,Minnesota,West North Central Division,Midwest Region,MN,27
33460,"Minneapolis-St. Paul-Bloomington, MN-WI",27,95,Minnesota,West North Central Division,Midwest Region,MN,27
12380,"Austin, MN",27,99,Minnesota,West North Central Division,Midwest Region,MN,27
35020,"Natchez, MS-LA",28,1,Mississippi,East South Central Division,South Region,MS,28
44260,"Starkville, MS",28,105,Mississippi,East South Central Division,South Region,MS,28
38100,"Picayune, MS",28,109,Mississippi,East South Central Division,South Region,MS,28
17380,"Cleveland, MS",28,11,Mississippi,East South Central Division,South Region,MS,28
25620,"Hattiesburg, MS",28,111,Mississippi,East South Central Division,South Region,MS,28
32620,"McComb, MS",28,113,Mississippi,East South Central Division,South Region,MS,28
46180,"Tupelo, MS",28,115,Mississippi,East South Central Division,South Region,MS,28
27140,"Jackson, MS",28,121,Mississippi,East South Central Division,South Region,MS,28
27140,"Jackson, MS",28,127,Mississippi,East South Central Division,South Region,MS,28
26940,"Indianola, MS",28,133,Mississippi,East South Central Division,South Region,MS,28
32820,"Memphis, TN-MS-AR",28,137,Mississippi,East South Central Division,South Region,MS,47
32820,"Memphis, TN-MS-AR",28,143,Mississippi,East South Central Division,South Region,MS,47
46980,"Vicksburg, MS",28,149,Mississippi,East South Central Division,South Region,MS,28
24900,"Greenwood, MS",28,15,Mississippi,East South Central Division,South Region,MS,28
24740,"Greenville, MS",28,151,Mississippi,East South Central Division,South Region,MS,28
27140,"Jackson, MS",28,163,Mississippi,East South Central Division,South Region,MS,28
46980,"Vicksburg, MS",28,21,Mississippi,East South Central Division,South Region,MS,28
32940,"Meridian, MS",28,23,Mississippi,East South Central Division,South Region,MS,28
48500,"West Point, MS",28,25,Mississippi,East South Central Division,South Region,MS,28
17260,"Clarksdale, MS",28,27,Mississippi,East South Central Division,South Region,MS,28
27140,"Jackson, MS",28,29,Mississippi,East South Central Division,South Region,MS,28
18420,"Corinth, MS",28,3,Mississippi,East South Central Division,South Region,MS,28
32820,"Memphis, TN-MS-AR",28,33,Mississippi,East South Central Division,South Region,MS,47
25620,"Hattiesburg, MS",28,35,Mississippi,East South Central Division,South Region,MS,28
24980,"Grenada, MS",28,43,Mississippi,East South Central Division,South Region,MS,28
25060,"Gulfport-Biloxi-Pascagoula, MS",28,45,Mississippi,East South Central Division,South Region,MS,28
25060,"Gulfport-Biloxi-Pascagoula, MS",28,47,Mississippi,East South Central Division,South Region,MS,28
27140,"Jackson, MS",28,49,Mississippi,East South Central Division,South Region,MS,28
32620,"McComb, MS",28,5,Mississippi,East South Central Division,South Region,MS,28
46180,"Tupelo, MS",28,57,Mississippi,East South Central Division,South Region,MS,28
25060,"Gulfport-Biloxi-Pascagoula, MS",28,59,Mississippi,East South Central Division,South Region,MS,28
29860,"Laurel, MS",28,61,Mississippi,East South Central Division,South Region,MS,28
29860,"Laurel, MS",28,67,Mississippi,East South Central Division,South Region,MS,28
32940,"Meridian, MS",28,69,Mississippi,East South Central Division,South Region,MS,28
37060,"Oxford, MS",28,71,Mississippi,East South Central Division,South Region,MS,28
25620,"Hattiesburg, MS",28,73,Mississippi,East South Central Division,South Region,MS,28
32940,"Meridian, MS",28,75,Mississippi,East South Central Division,South Region,MS,28
46180,"Tupelo, MS",28,81,Mississippi,East South Central Division,South Region,MS,28
24900,"Greenwood, MS",28,83,Mississippi,East South Central Division,South Region,MS,28
15020,"Brookhaven, MS",28,85,Mississippi,East South Central Division,South Region,MS,28
18060,"Columbus, MS",28,87,Mississippi,East South Central Division,South Region,MS,28
27140,"Jackson, MS",28,89,Mississippi,East South Central Division,South Region,MS,28
32820,"Memphis, TN-MS-AR",28,9,Mississippi,East South Central Division,South Region,MS,47
32820,"Memphis, TN-MS-AR",28,93,Mississippi,East South Central Division,South Region,MS,47
21820,"Fairbanks, AK",2,90,Alaska,Pacific Division,West Region,AK,2
28860,"Kirksville, MO",29,1,Missouri,West North Central Division,Midwest Region,MO,29
47660,"Warrensburg, MO",29,101,Missouri,West North Central Division,Midwest Region,MO,29
30060,"Lebanon, MO",29,105,Missouri,West North Central Division,Midwest Region,MO,29
28140,"Kansas City, MO-KS",29,107,Missouri,West North Central Division,Midwest Region,MO,29
39500,"Quincy, IL-MO",29,111,Missouri,East North Central Division,Midwest Region,MO,29
41180,"St. Louis, MO-IL",29,113,Missouri,West North Central Division,Midwest Region,MO,29
22220,"Fayetteville-Springdale-Rogers, AR-MO",29,119,Missouri,West South Central Division,South Region,MO,5
25300,"Hannibal, MO",29,127,Missouri,West North Central Division,Midwest Region,MO,29
28140,"Kansas City, MO-KS",29,13,Missouri,West North Central Division,Midwest Region,MO,29
27620,"Jefferson City, MO",29,135,Missouri,West North Central Division,Midwest Region,MO,29
27900,"Joplin, MO",29,145,Missouri,West North Central Division,Midwest Region,MO,29
32340,"Maryville, MO",29,147,Missouri,West North Central Division,Midwest Region,MO,29
27620,"Jefferson City, MO",29,151,Missouri,West North Central Division,Midwest Region,MO,29
42740,"Sedalia, MO",29,159,Missouri,West North Central Division,Midwest Region,MO,29
40620,"Rolla, MO",29,161,Missouri,West North Central Division,Midwest Region,MO,29
28140,"Kansas City, MO-KS",29,165,Missouri,West North Central Division,Midwest Region,MO,29
44180,"Springfield, MO",29,167,Missouri,West North Central Division,Midwest Region,MO,29
22780,"Fort Leonard Wood, MO",29,169,Missouri,West North Central Division,Midwest Region,MO,29
16020,"Cape Girardeau, MO-IL",29,17,Missouri,West North Central Division,Midwest Region,MO,29
25300,"Hannibal, MO",29,173,Missouri,West North Central Division,Midwest Region,MO,29
33620,"Moberly, MO",29,175,Missouri,West North Central Division,Midwest Region,MO,29
28140,"Kansas City, MO-KS",29,177,Missouri,West North Central Division,Midwest Region,MO,29
41180,"St. Louis, MO-IL",29,183,Missouri,West North Central Division,Midwest Region,MO,29
22100,"Farmington, MO",29,187,Missouri,West North Central Division,Midwest Region,MO,29
41180,"St. Louis, MO-IL",29,189,Missouri,West North Central Division,Midwest Region,MO,29
17860,"Columbia, MO",29,19,Missouri,West North Central Division,Midwest Region,MO,29
32180,"Marshall, MO",29,195,Missouri,West North Central Division,Midwest Region,MO,29
28860,"Kirksville, MO",29,197,Missouri,West North Central Division,Midwest Region,MO,29
43460,"Sikeston, MO",29,201,Missouri,West North Central Division,Midwest Region,MO,29
14700,"Branson, MO",29,209,Missouri,West North Central Division,Midwest Region,MO,29
41140,"St. Joseph, MO-KS",29,21,Missouri,West North Central Division,Midwest Region,MO,29
14700,"Branson, MO",29,213,Missouri,West North Central Division,Midwest Region,MO,29
41180,"St. Louis, MO-IL",29,219,Missouri,West North Central Division,Midwest Region,MO,29
44180,"Springfield, MO",29,225,Missouri,West North Central Division,Midwest Region,MO,29
38740,"Poplar Bluff, MO",29,23,Missouri,West North Central Division,Midwest Region,MO,29
28140,"Kansas City, MO-KS",29,25,Missouri,West North Central Division,Midwest Region,MO,29
27620,"Jefferson City, MO",29,27,Missouri,West North Central Division,Midwest Region,MO,29
41140,"St. Joseph, MO-KS",29,3,Missouri,West North Central Division,Midwest Region,MO,29
16020,"Cape Girardeau, MO-IL",29,31,Missouri,West North Central Division,Midwest Region,MO,29
28140,"Kansas City, MO-KS",29,37,Missouri,West North Central Division,Midwest Region,MO,29
44180,"Springfield, MO",29,43,Missouri,West North Central Division,Midwest Region,MO,29
22800,"Fort Madison-Keokuk, IA-IL-MO",29,45,Missouri,West North Central Division,Midwest Region,MO,19
28140,"Kansas City, MO-KS",29,47,Missouri,West North Central Division,Midwest Region,MO,29
28140,"Kansas City, MO-KS",29,49,Missouri,West North Central Division,Midwest Region,MO,29
27620,"Jefferson City, MO",29,51,Missouri,West North Central Division,Midwest Region,MO,29
41180,"St. Louis, MO-IL",29,510,Missouri,West North Central Division,Midwest Region,MO,29
44180,"Springfield, MO",29,59,Missouri,West North Central Division,Midwest Region,MO,29
41140,"St. Joseph, MO-KS",29,63,Missouri,West North Central Division,Midwest Region,MO,29
28380,"Kennett, MO",29,69,Missouri,West North Central Division,Midwest Region,MO,29
33020,"Mexico, MO",29,7,Missouri,West North Central Division,Midwest Region,MO,29
41180,"St. Louis, MO-IL",29,71,Missouri,West North Central Division,Midwest Region,MO,29
44180,"Springfield, MO",29,77,Missouri,West North Central Division,Midwest Region,MO,29
48460,"West Plains, MO",29,91,Missouri,West North Central Division,Midwest Region,MO,29
28140,"Kansas City, MO-KS",29,95,Missouri,West North Central Division,Midwest Region,MO,29
27900,"Joplin, MO",29,97,Missouri,West North Central Division,Midwest Region,MO,29
41180,"St. Louis, MO-IL",29,99,Missouri,West North Central Division,Midwest Region,MO,29
13740,"Billings, MT",30,111,Montana,Mountain Division,West Region,MT,30
24500,"Great Falls, MT",30,13,Montana,Mountain Division,West Region,MT,30
28060,"Kalispell, MT",30,29,Montana,Mountain Division,West Region,MT,30
14580,"Bozeman, MT",30,31,Montana,Mountain Division,West Region,MT,30
13740,"Billings, MT",30,37,Montana,Mountain Division,West Region,MT,30
25740,"Helena, MT",30,43,Montana,Mountain Division,West Region,MT,30
25740,"Helena, MT",30,49,Montana,Mountain Division,West Region,MT,30
33540,"Missoula, MT",30,63,Montana,Mountain Division,West Region,MT,30
13740,"Billings, MT",30,9,Montana,Mountain Division,West Region,MT,30
15580,"Butte-Silver Bow, MT",30,93,Montana,Mountain Division,West Region,MT,30
25580,"Hastings, NE",31,1,Nebraska,West North Central Division,Midwest Region,NE,31
30700,"Lincoln, NE",31,109,Nebraska,West North Central Division,Midwest Region,NE,31
35820,"North Platte, NE",31,111,Nebraska,West North Central Division,Midwest Region,NE,31
35820,"North Platte, NE",31,113,Nebraska,West North Central Division,Midwest Region,NE,31
35820,"North Platte, NE",31,117,Nebraska,West North Central Division,Midwest Region,NE,31
35740,"Norfolk, NE",31,119,Nebraska,West North Central Division,Midwest Region,NE,31
24260,"Grand Island, NE",31,121,Nebraska,West North Central Division,Midwest Region,NE,31
35740,"Norfolk, NE",31,139,Nebraska,West North Central Division,Midwest Region,NE,31
18100,"Columbus, NE",31,141,Nebraska,West North Central Division,Midwest Region,NE,31
36540,"Omaha-Council Bluffs, NE-IA",31,153,Nebraska,West North Central Division,Midwest Region,NE,31
36540,"Omaha-Council Bluffs, NE-IA",31,155,Nebraska,West North Central Division,Midwest Region,NE,31
42420,"Scottsbluff, NE",31,157,Nebraska,West North Central Division,Midwest Region,NE,31
30700,"Lincoln, NE",31,159,Nebraska,West North Central Division,Midwest Region,NE,31
42420,"Scottsbluff, NE",31,165,Nebraska,West North Central Division,Midwest Region,NE,31
35740,"Norfolk, NE",31,167,Nebraska,West North Central Division,Midwest Region,NE,31
36540,"Omaha-Council Bluffs, NE-IA",31,177,Nebraska,West North Central Division,Midwest Region,NE,31
28260,"Kearney, NE",31,19,Nebraska,West North Central Division,Midwest Region,NE,31
36540,"Omaha-Council Bluffs, NE-IA",31,25,Nebraska,West North Central Division,Midwest Region,NE,31
43580,"Sioux City, IA-NE-SD",31,43,Nebraska,West North Central Division,Midwest Region,NE,19
30420,"Lexington, NE",31,47,Nebraska,West North Central Division,Midwest Region,NE,31
43580,"Sioux City, IA-NE-SD",31,51,Nebraska,West North Central Division,Midwest Region,NE,19
23340,"Fremont, NE",31,53,Nebraska,West North Central Division,Midwest Region,NE,31
36540,"Omaha-Council Bluffs, NE-IA",31,55,Nebraska,West North Central Division,Midwest Region,NE,31
13100,"Beatrice, NE",31,67,Nebraska,West North Central Division,Midwest Region,NE,31
42420,"Scottsbluff, NE",31,7,Nebraska,West North Central Division,Midwest Region,NE,31
30420,"Lexington, NE",31,73,Nebraska,West North Central Division,Midwest Region,NE,31
24260,"Grand Island, NE",31,79,Nebraska,West North Central Division,Midwest Region,NE,31
24260,"Grand Island, NE",31,81,Nebraska,West North Central Division,Midwest Region,NE,31
24260,"Grand Island, NE",31,93,Nebraska,West North Central Division,Midwest Region,NE,31
28260,"Kearney, NE",31,99,Nebraska,West North Central Division,Midwest Region,NE,31
21980,"Fallon, NV",32,1,Nevada,Mountain Division,West Region,NV,32
21220,"Elko, NV",32,11,Nevada,Mountain Division,West Region,NV,32
49080,"Winnemucca, NV",32,13,Nevada,Mountain Division,West Region,NV,32
22280,"Fernley, NV",32,19,Nevada,Mountain Division,West Region,NV,32
37220,"Pahrump, NV",32,23,Nevada,Mountain Division,West Region,NV,32
39900,"Reno, NV",32,29,Nevada,Mountain Division,West Region,NV,32
29820,"Las Vegas-Henderson-Paradise, NV",32,3,Nevada,Mountain Division,West Region,NV,32
39900,"Reno, NV",32,31,Nevada,Mountain Division,West Region,NV,32
23820,"Gardnerville Ranchos, NV",32,5,Nevada,Mountain Division,West Region,NV,32
16180,"Carson City, NV",32,510,Nevada,Mountain Division,West Region,NV,32
21220,"Elko, NV",32,7,Nevada,Mountain Division,West Region,NV,32
29060,"Laconia, NH",33,1,New Hampshire,New England Division,Northeast Region,NH,33
71650,"Boston-Cambridge-Nashua, MA-NH",33,11,New Hampshire,New England Division,Northeast Region,NH,25
18180,"Concord, NH",33,13,New Hampshire,New England Division,Northeast Region,NH,33
71650,"Boston-Cambridge-Nashua, MA-NH",33,15,New Hampshire,New England Division,Northeast Region,NH,25
71650,"Boston-Cambridge-Nashua, MA-NH",33,17,New Hampshire,New England Division,Northeast Region,NH,25
17200,"Claremont-Lebanon, NH-VT",33,19,New Hampshire,New England Division,Northeast Region,NH,33
28300,"Keene, NH",33,5,New Hampshire,New England Division,Northeast Region,NH,33
13620,"Berlin, NH-VT",33,7,New Hampshire,New England Division,Northeast Region,NH,33
17200,"Claremont-Lebanon, NH-VT",33,9,New Hampshire,New England Division,Northeast Region,NH,33
12100,"Atlantic City-Hammonton, NJ",34,1,New Jersey,Middle Atlantic Division,Northeast Region,NJ,34
47220,"Vineland-Bridgeton, NJ",34,11,New Jersey,Middle Atlantic Division,Northeast Region,NJ,34
35620,"New York-Newark-Jersey City, NY-NJ-PA",34,13,New Jersey,Middle Atlantic Division,Northeast Region,NJ,36
37980,"Philadelphia-Camden-Wilmington, PA-NJ-DE-MD",34,15,New Jersey,Middle Atlantic Division,Northeast Region,NJ,42
35620,"New York-Newark-Jersey City, NY-NJ-PA",34,17,New Jersey,Middle Atlantic Division,Northeast Region,NJ,36
35620,"New York-Newark-Jersey City, NY-NJ-PA",34,19,New Jersey,Middle Atlantic Division,Northeast Region,NJ,36
45940,"Trenton, NJ",34,21,New Jersey,Middle Atlantic Division,Northeast Region,NJ,34
35620,"New York-Newark-Jersey City, NY-NJ-PA",34,23,New Jersey,Middle Atlantic Division,Northeast Region,NJ,36
35620,"New York-Newark-Jersey City, NY-NJ-PA",34,25,New Jersey,Middle Atlantic Division,Northeast Region,NJ,36
35620,"New York-Newark-Jersey City, NY-NJ-PA",34,27,New Jersey,Middle Atlantic Division,Northeast Region,NJ,36
35620,"New York-Newark-Jersey City, NY-NJ-PA",34,29,New Jersey,Middle Atlantic Division,Northeast Region,NJ,36
35620,"New York-Newark-Jersey City, NY-NJ-PA",34,3,New Jersey,Middle Atlantic Division,Northeast Region,NJ,36
35620,"New York-Newark-Jersey City, NY-NJ-PA",34,31,New Jersey,Middle Atlantic Division,Northeast Region,NJ,36
37980,"Philadelphia-Camden-Wilmington, PA-NJ-DE-MD",34,33,New Jersey,Middle Atlantic Division,Northeast Region,NJ,42
35620,"New York-Newark-Jersey City, NY-NJ-PA",34,35,New Jersey,Middle Atlantic Division,Northeast Region,NJ,36
35620,"New York-Newark-Jersey City, NY-NJ-PA",34,37,New Jersey,Middle Atlantic Division,Northeast Region,NJ,36
35620,"New York-Newark-Jersey City, NY-NJ-PA",34,39,New Jersey,Middle Atlantic Division,Northeast Region,NJ,36
10900,"Allentown-Bethlehem-Easton, PA-NJ",34,41,New Jersey,Middle Atlantic Division,Northeast Region,NJ,42
37980,"Philadelphia-Camden-Wilmington, PA-NJ-DE-MD",34,5,New Jersey,Middle Atlantic Division,Northeast Region,NJ,42
37980,"Philadelphia-Camden-Wilmington, PA-NJ-DE-MD",34,7,New Jersey,Middle Atlantic Division,Northeast Region,NJ,42
36140,"Ocean City, NJ",34,9,New Jersey,Middle Atlantic Division,Northeast Region,NJ,34
10740,"Albuquerque, NM",35,1,New Mexico,Mountain Division,West Region,NM,35
29740,"Las Cruces, NM",35,13,New Mexico,Mountain Division,West Region,NM,35
16100,"Carlsbad-Artesia, NM",35,15,New Mexico,Mountain Division,West Region,NM,35
43500,"Silver City, NM",35,17,New Mexico,Mountain Division,West Region,NM,35
26020,"Hobbs, NM",35,25,New Mexico,Mountain Division,West Region,NM,35
40760,"Ruidoso, NM",35,27,New Mexico,Mountain Division,West Region,NM,35
31060,"Los Alamos, NM",35,28,New Mexico,Mountain Division,West Region,NM,35
19700,"Deming, NM",35,29,New Mexico,Mountain Division,West Region,NM,35
23700,"Gallup, NM",35,31,New Mexico,Mountain Division,West Region,NM,35
10460,"Alamogordo, NM",35,35,New Mexico,Mountain Division,West Region,NM,35
21580,"Espaola, NM",35,39,New Mexico,Mountain Division,West Region,NM,35
38780,"Portales, NM",35,41,New Mexico,Mountain Division,West Region,NM,35
10740,"Albuquerque, NM",35,43,New Mexico,Mountain Division,West Region,NM,35
22140,"Farmington, NM",35,45,New Mexico,Mountain Division,West Region,NM,35
29780,"Las Vegas, NM",35,47,New Mexico,Mountain Division,West Region,NM,35
42140,"Santa Fe, NM",35,49,New Mexico,Mountain Division,West Region,NM,35
40740,"Roswell, NM",35,5,New Mexico,Mountain Division,West Region,NM,35
45340,"Taos, NM",35,55,New Mexico,Mountain Division,West Region,NM,35
10740,"Albuquerque, NM",35,57,New Mexico,Mountain Division,West Region,NM,35
24380,"Grants, NM",35,6,New Mexico,Mountain Division,West Region,NM,35
10740,"Albuquerque, NM",35,61,New Mexico,Mountain Division,West Region,NM,35
17580,"Clovis, NM",35,9,New Mexico,Mountain Division,West Region,NM,35
10580,"Albany-Schenectady-Troy, NY",36,1,New York,Middle Atlantic Division,Northeast Region,NY,36
18500,"Corning, NY",36,101,New York,Middle Atlantic Division,Northeast Region,NY,36
35620,"New York-Newark-Jersey City, NY-NJ-PA",36,103,New York,Middle Atlantic Division,Northeast Region,NY,36
13780,"Binghamton, NY",36,107,New York,Middle Atlantic Division,Northeast Region,NY,36
27060,"Ithaca, NY",36,109,New York,Middle Atlantic Division,Northeast Region,NY,36
12180,"Auburn, NY",36,11,New York,Middle Atlantic Division,Northeast Region,NY,36
28740,"Kingston, NY",36,111,New York,Middle Atlantic Division,Northeast Region,NY,36
24020,"Glens Falls, NY",36,113,New York,Middle Atlantic Division,Northeast Region,NY,36
24020,"Glens Falls, NY",36,115,New York,Middle Atlantic Division,Northeast Region,NY,36
40380,"Rochester, NY",36,117,New York,Middle Atlantic Division,Northeast Region,NY,36
35620,"New York-Newark-Jersey City, NY-NJ-PA",36,119,New York,Middle Atlantic Division,Northeast Region,NY,36
40380,"Rochester, NY",36,123,New York,Middle Atlantic Division,Northeast Region,NY,36
27460,"Jamestown-Dunkirk-Fredonia, NY",36,13,New York,Middle Atlantic Division,Northeast Region,NY,36
21300,"Elmira, NY",36,15,New York,Middle Atlantic Division,Northeast Region,NY,36
38460,"Plattsburgh, NY",36,19,New York,Middle Atlantic Division,Northeast Region,NY,36
26460,"Hudson, NY",36,21,New York,Middle Atlantic Division,Northeast Region,NY,36
18660,"Cortland, NY",36,23,New York,Middle Atlantic Division,Northeast Region,NY,36
35620,"New York-Newark-Jersey City, NY-NJ-PA",36,27,New York,Middle Atlantic Division,Northeast Region,NY,36
15380,"Buffalo-Cheektowaga-Niagara Falls, NY",36,29,New York,Middle Atlantic Division,Northeast Region,NY,36
31660,"Malone, NY",36,33,New York,Middle Atlantic Division,Northeast Region,NY,36
24100,"Gloversville, NY",36,35,New York,Middle Atlantic Division,Northeast Region,NY,36
12860,"Batavia, NY",36,37,New York,Middle Atlantic Division,Northeast Region,NY,36
46540,"Utica-Rome, NY",36,43,New York,Middle Atlantic Division,Northeast Region,NY,36
48060,"Watertown-Fort Drum, NY",36,45,New York,Middle Atlantic Division,Northeast Region,NY,36
35620,"New York-Newark-Jersey City, NY-NJ-PA",36,47,New York,Middle Atlantic Division,Northeast Region,NY,36
35620,"New York-Newark-Jersey City, NY-NJ-PA",36,5,New York,Middle Atlantic Division,Northeast Region,NY,36
40380,"Rochester, NY",36,51,New York,Middle Atlantic Division,Northeast Region,NY,36
45060,"Syracuse, NY",36,53,New York,Middle Atlantic Division,Northeast Region,NY,36
40380,"Rochester, NY",36,55,New York,Middle Atlantic Division,Northeast Region,NY,36
11220,"Amsterdam, NY",36,57,New York,Middle Atlantic Division,Northeast Region,NY,36
35620,"New York-Newark-Jersey City, NY-NJ-PA",36,59,New York,Middle Atlantic Division,Northeast Region,NY,36
35620,"New York-Newark-Jersey City, NY-NJ-PA",36,61,New York,Middle Atlantic Division,Northeast Region,NY,36
15380,"Buffalo-Cheektowaga-Niagara Falls, NY",36,63,New York,Middle Atlantic Division,Northeast Region,NY,36
46540,"Utica-Rome, NY",36,65,New York,Middle Atlantic Division,Northeast Region,NY,36
45060,"Syracuse, NY",36,67,New York,Middle Atlantic Division,Northeast Region,NY,36
40380,"Rochester, NY",36,69,New York,Middle Atlantic Division,Northeast Region,NY,36
13780,"Binghamton, NY",36,7,New York,Middle Atlantic Division,Northeast Region,NY,36
35620,"New York-Newark-Jersey City, NY-NJ-PA",36,71,New York,Middle Atlantic Division,Northeast Region,NY,36
40380,"Rochester, NY",36,73,New York,Middle Atlantic Division,Northeast Region,NY,36
45060,"Syracuse, NY",36,75,New York,Middle Atlantic Division,Northeast Region,NY,36
36580,"Oneonta, NY",36,77,New York,Middle Atlantic Division,Northeast Region,NY,36
35620,"New York-Newark-Jersey City, NY-NJ-PA",36,79,New York,Middle Atlantic Division,Northeast Region,NY,36
35620,"New York-Newark-Jersey City, NY-NJ-PA",36,81,New York,Middle Atlantic Division,Northeast Region,NY,36
10580,"Albany-Schenectady-Troy, NY",36,83,New York,Middle Atlantic Division,Northeast Region,NY,36
35620,"New York-Newark-Jersey City, NY-NJ-PA",36,85,New York,Middle Atlantic Division,Northeast Region,NY,36
35620,"New York-Newark-Jersey City, NY-NJ-PA",36,87,New York,Middle Atlantic Division,Northeast Region,NY,36
36300,"Ogdensburg-Massena, NY",36,89,New York,Middle Atlantic Division,Northeast Region,NY,36
36460,"Olean, NY",36,9,New York,Middle Atlantic Division,Northeast Region,NY,36
10580,"Albany-Schenectady-Troy, NY",36,91,New York,Middle Atlantic Division,Northeast Region,NY,36
10580,"Albany-Schenectady-Troy, NY",36,93,New York,Middle Atlantic Division,Northeast Region,NY,36
10580,"Albany-Schenectady-Troy, NY",36,95,New York,Middle Atlantic Division,Northeast Region,NY,36
42900,"Seneca Falls, NY",36,99,New York,Middle Atlantic Division,Northeast Region,NY,36
15500,"Burlington, NC",37,1,North Carolina,South Atlantic Division,South Region,NC,37
39580,"Raleigh, NC",37,101,North Carolina,South Atlantic Division,South Region,NC,37
35100,"New Bern, NC",37,103,North Carolina,South Atlantic Division,South Region,NC,37
41820,"Sanford, NC",37,105,North Carolina,South Atlantic Division,South Region,NC,37
28820,"Kinston, NC",37,107,North Carolina,South Atlantic Division,South Region,NC,37
16740,"Charlotte-Concord-Gastonia, NC-SC",37,109,North Carolina,South Atlantic Division,South Region,NC,37
32000,"Marion, NC",37,111,North Carolina,South Atlantic Division,South Region,NC,37
11700,"Asheville, NC",37,115,North Carolina,South Atlantic Division,South Region,NC,37
16740,"Charlotte-Concord-Gastonia, NC-SC",37,119,North Carolina,South Atlantic Division,South Region,NC,37
38240,"Pinehurst-Southern Pines, NC",37,125,North Carolina,South Atlantic Division,South Region,NC,37
40580,"Rocky Mount, NC",37,127,North Carolina,South Atlantic Division,South Region,NC,37
48900,"Wilmington, NC",37,129,North Carolina,South Atlantic Division,South Region,NC,37
47820,"Washington, NC",37,13,North Carolina,South Atlantic Division,South Region,NC,37
40260,"Roanoke Rapids, NC",37,131,North Carolina,South Atlantic Division,South Region,NC,37
27340,"Jacksonville, NC",37,133,North Carolina,South Atlantic Division,South Region,NC,37
20500,"Durham-Chapel Hill, NC",37,135,North Carolina,South Atlantic Division,South Region,NC,37
35100,"New Bern, NC",37,137,North Carolina,South Atlantic Division,South Region,NC,37
21020,"Elizabeth City, NC",37,139,North Carolina,South Atlantic Division,South Region,NC,37
48900,"Wilmington, NC",37,141,North Carolina,South Atlantic Division,South Region,NC,37
21020,"Elizabeth City, NC",37,143,North Carolina,South Atlantic Division,South Region,NC,37
20500,"Durham-Chapel Hill, NC",37,145,North Carolina,South Atlantic Division,South Region,NC,37
24780,"Greenville, NC",37,147,North Carolina,South Atlantic Division,South Region,NC,37
24660,"Greensboro-High Point, NC",37,151,North Carolina,South Atlantic Division,South Region,NC,37
40460,"Rockingham, NC",37,153,North Carolina,South Atlantic Division,South Region,NC,37
31300,"Lumberton, NC",37,155,North Carolina,South Atlantic Division,South Region,NC,37
24660,"Greensboro-High Point, NC",37,157,North Carolina,South Atlantic Division,South Region,NC,37
16740,"Charlotte-Concord-Gastonia, NC-SC",37,159,North Carolina,South Atlantic Division,South Region,NC,37
22580,"Forest City, NC",37,161,North Carolina,South Atlantic Division,South Region,NC,37
29900,"Laurinburg, NC",37,165,North Carolina,South Atlantic Division,South Region,NC,37
10620,"Albemarle, NC",37,167,North Carolina,South Atlantic Division,South Region,NC,37
49180,"Winston-Salem, NC",37,169,North Carolina,South Atlantic Division,South Region,NC,37
34340,"Mount Airy, NC",37,171,North Carolina,South Atlantic Division,South Region,NC,37
14820,"Brevard, NC",37,175,North Carolina,South Atlantic Division,South Region,NC,37
28620,"Kill Devil Hills, NC",37,177,North Carolina,South Atlantic Division,South Region,NC,37
16740,"Charlotte-Concord-Gastonia, NC-SC",37,179,North Carolina,South Atlantic Division,South Region,NC,37
25780,"Henderson, NC",37,181,North Carolina,South Atlantic Division,South Region,NC,37
39580,"Raleigh, NC",37,183,North Carolina,South Atlantic Division,South Region,NC,37
14380,"Boone, NC",37,189,North Carolina,South Atlantic Division,South Region,NC,37
34820,"Myrtle Beach-Conway-North Myrtle Beach, SC-NC",37,19,North Carolina,South Atlantic Division,South Region,NC,45
24140,"Goldsboro, NC",37,191,North Carolina,South Atlantic Division,South Region,NC,37
35900,"North Wilkesboro, NC",37,193,North Carolina,South Atlantic Division,South Region,NC,37
48980,"Wilson, NC",37,195,North Carolina,South Atlantic Division,South Region,NC,37
49180,"Winston-Salem, NC",37,197,North Carolina,South Atlantic Division,South Region,NC,37
11700,"Asheville, NC",37,21,North Carolina,South Atlantic Division,South Region,NC,37
25860,"Hickory-Lenoir-Morganton, NC",37,23,North Carolina,South Atlantic Division,South Region,NC,37
16740,"Charlotte-Concord-Gastonia, NC-SC",37,25,North Carolina,South Atlantic Division,South Region,NC,37
25860,"Hickory-Lenoir-Morganton, NC",37,27,North Carolina,South Atlantic Division,South Region,NC,37
21020,"Elizabeth City, NC",37,29,North Carolina,South Atlantic Division,South Region,NC,37
25860,"Hickory-Lenoir-Morganton, NC",37,3,North Carolina,South Atlantic Division,South Region,NC,37
33980,"Morehead City, NC",37,31,North Carolina,South Atlantic Division,South Region,NC,37
25860,"Hickory-Lenoir-Morganton, NC",37,35,North Carolina,South Atlantic Division,South Region,NC,37
20500,"Durham-Chapel Hill, NC",37,37,North Carolina,South Atlantic Division,South Region,NC,37
43140,"Shelby, NC",37,45,North Carolina,South Atlantic Division,South Region,NC,37
35100,"New Bern, NC",37,49,North Carolina,South Atlantic Division,South Region,NC,37
22180,"Fayetteville, NC",37,51,North Carolina,South Atlantic Division,South Region,NC,37
47260,"Virginia Beach-Norfolk-Newport News, VA-NC",37,53,North Carolina,South Atlantic Division,South Region,NC,51
28620,"Kill Devil Hills, NC",37,55,North Carolina,South Atlantic Division,South Region,NC,37
49180,"Winston-Salem, NC",37,57,North Carolina,South Atlantic Division,South Region,NC,37
49180,"Winston-Salem, NC",37,59,North Carolina,South Atlantic Division,South Region,NC,37
20500,"Durham-Chapel Hill, NC",37,63,North Carolina,South Atlantic Division,South Region,NC,37
40580,"Rocky Mount, NC",37,65,North Carolina,South Atlantic Division,South Region,NC,37
49180,"Winston-Salem, NC",37,67,North Carolina,South Atlantic Division,South Region,NC,37
39580,"Raleigh, NC",37,69,North Carolina,South Atlantic Division,South Region,NC,37
16740,"Charlotte-Concord-Gastonia, NC-SC",37,71,North Carolina,South Atlantic Division,South Region,NC,37
47260,"Virginia Beach-Norfolk-Newport News, VA-NC",37,73,North Carolina,South Atlantic Division,South Region,NC,51
37080,"Oxford, NC",37,77,North Carolina,South Atlantic Division,South Region,NC,37
24660,"Greensboro-High Point, NC",37,81,North Carolina,South Atlantic Division,South Region,NC,37
40260,"Roanoke Rapids, NC",37,83,North Carolina,South Atlantic Division,South Region,NC,37
20380,"Dunn, NC",37,85,North Carolina,South Atlantic Division,South Region,NC,37
11700,"Asheville, NC",37,87,North Carolina,South Atlantic Division,South Region,NC,37
11700,"Asheville, NC",37,89,North Carolina,South Atlantic Division,South Region,NC,37
22180,"Fayetteville, NC",37,93,North Carolina,South Atlantic Division,South Region,NC,37
16740,"Charlotte-Concord-Gastonia, NC-SC",37,97,North Carolina,South Atlantic Division,South Region,NC,37
19000,"Cullowhee, NC",37,99,North Carolina,South Atlantic Division,South Region,NC,37
33500,"Minot, ND",38,101,North Dakota,West North Central Division,Midwest Region,ND,38
48780,"Williston, ND",38,105,North Dakota,West North Central Division,Midwest Region,ND,38
13900,"Bismarck, ND",38,15,North Dakota,West North Central Division,Midwest Region,ND,38
22020,"Fargo, ND-MN",38,17,North Dakota,West North Central Division,Midwest Region,ND,38
24220,"Grand Forks, ND-MN",38,35,North Dakota,West North Central Division,Midwest Region,ND,38
33500,"Minot, ND",38,49,North Dakota,West North Central Division,Midwest Region,ND,38
13900,"Bismarck, ND",38,59,North Dakota,West North Central Division,Midwest Region,ND,38
13900,"Bismarck, ND",38,65,North Dakota,West North Central Division,Midwest Region,ND,38
33500,"Minot, ND",38,75,North Dakota,West North Central Division,Midwest Region,ND,38
47420,"Wahpeton, ND-MN",38,77,North Dakota,West North Central Division,Midwest Region,ND,38
13900,"Bismarck, ND",38,85,North Dakota,West North Central Division,Midwest Region,ND,38
19860,"Dickinson, ND",38,89,North Dakota,West North Central Division,Midwest Region,ND,38
27420,"Jamestown, ND",38,93,North Dakota,West North Central Division,Midwest Region,ND,38
32020,"Marion, OH",39,101,Ohio,East North Central Division,Midwest Region,OH,39
17460,"Cleveland-Elyria, OH",39,103,Ohio,East North Central Division,Midwest Region,OH,39
16380,"Celina, OH",39,107,Ohio,East North Central Division,Midwest Region,OH,39
19380,"Dayton, OH",39,109,Ohio,East North Central Division,Midwest Region,OH,39
47540,"Wapakoneta, OH",39,11,Ohio,East North Central Division,Midwest Region,OH,39
19380,"Dayton, OH",39,113,Ohio,East North Central Division,Midwest Region,OH,39
18140,"Columbus, OH",39,117,Ohio,East North Central Division,Midwest Region,OH,39
49780,"Zanesville, OH",39,119,Ohio,East North Central Division,Midwest Region,OH,39
38840,"Port Clinton, OH",39,123,Ohio,East North Central Division,Midwest Region,OH,39
18140,"Columbus, OH",39,127,Ohio,East North Central Division,Midwest Region,OH,39
18140,"Columbus, OH",39,129,Ohio,East North Central Division,Midwest Region,OH,39
48540,"Wheeling, WV-OH",39,13,Ohio,South Atlantic Division,South Region,OH,54
10420,"Akron, OH",39,133,Ohio,East North Central Division,Midwest Region,OH,39
31900,"Mansfield, OH",39,139,Ohio,East North Central Division,Midwest Region,OH,39
17060,"Chillicothe, OH",39,141,Ohio,East North Central Division,Midwest Region,OH,39
23380,"Fremont, OH",39,143,Ohio,East North Central Division,Midwest Region,OH,39
39020,"Portsmouth, OH",39,145,Ohio,East North Central Division,Midwest Region,OH,39
45660,"Tiffin, OH",39,147,Ohio,East North Central Division,Midwest Region,OH,39
43380,"Sidney, OH",39,149,Ohio,East North Central Division,Midwest Region,OH,39
17140,"Cincinnati, OH-KY-IN",39,15,Ohio,East North Central Division,Midwest Region,OH,39
15940,"Canton-Massillon, OH",39,151,Ohio,East North Central Division,Midwest Region,OH,39
10420,"Akron, OH",39,153,Ohio,East North Central Division,Midwest Region,OH,39
49660,"Youngstown-Warren-Boardman, OH-PA",39,155,Ohio,East North Central Division,Midwest Region,OH,39
35420,"New Philadelphia-Dover, OH",39,157,Ohio,East North Central Division,Midwest Region,OH,39
18140,"Columbus, OH",39,159,Ohio,East North Central Division,Midwest Region,OH,39
46780,"Van Wert, OH",39,161,Ohio,East North Central Division,Midwest Region,OH,39
17140,"Cincinnati, OH-KY-IN",39,165,Ohio,East North Central Division,Midwest Region,OH,39
31930,"Marietta, OH",39,167,Ohio,East North Central Division,Midwest Region,OH,39
49300,"Wooster, OH",39,169,Ohio,East North Central Division,Midwest Region,OH,39
17140,"Cincinnati, OH-KY-IN",39,17,Ohio,East North Central Division,Midwest Region,OH,39
45780,"Toledo, OH",39,173,Ohio,East North Central Division,Midwest Region,OH,39
15940,"Canton-Massillon, OH",39,19,Ohio,East North Central Division,Midwest Region,OH,39
46500,"Urbana, OH",39,21,Ohio,East North Central Division,Midwest Region,OH,39
44220,"Springfield, OH",39,23,Ohio,East North Central Division,Midwest Region,OH,39
17140,"Cincinnati, OH-KY-IN",39,25,Ohio,East North Central Division,Midwest Region,OH,39
48940,"Wilmington, OH",39,27,Ohio,East North Central Division,Midwest Region,OH,39
41400,"Salem, OH",39,29,Ohio,East North Central Division,Midwest Region,OH,39
30620,"Lima, OH",39,3,Ohio,East North Central Division,Midwest Region,OH,39
18740,"Coshocton, OH",39,31,Ohio,East North Central Division,Midwest Region,OH,39
15340,"Bucyrus, OH",39,33,Ohio,East North Central Division,Midwest Region,OH,39
17460,"Cleveland-Elyria, OH",39,35,Ohio,East North Central Division,Midwest Region,OH,39
24820,"Greenville, OH",39,37,Ohio,East North Central Division,Midwest Region,OH,39
19580,"Defiance, OH",39,39,Ohio,East North Central Division,Midwest Region,OH,39
18140,"Columbus, OH",39,41,Ohio,East North Central Division,Midwest Region,OH,39
41780,"Sandusky, OH",39,43,Ohio,East North Central Division,Midwest Region,OH,39
18140,"Columbus, OH",39,45,Ohio,East North Central Division,Midwest Region,OH,39
47920,"Washington Court House, OH",39,47,Ohio,East North Central Division,Midwest Region,OH,39
18140,"Columbus, OH",39,49,Ohio,East North Central Division,Midwest Region,OH,39
11740,"Ashland, OH",39,5,Ohio,East North Central Division,Midwest Region,OH,39
45780,"Toledo, OH",39,51,Ohio,East North Central Division,Midwest Region,OH,39
38580,"Point Pleasant, WV-OH",39,53,Ohio,South Atlantic Division,South Region,OH,54
17460,"Cleveland-Elyria, OH",39,55,Ohio,East North Central Division,Midwest Region,OH,39
19380,"Dayton, OH",39,57,Ohio,East North Central Division,Midwest Region,OH,39
15740,"Cambridge, OH",39,59,Ohio,East North Central Division,Midwest Region,OH,39
17140,"Cincinnati, OH-KY-IN",39,61,Ohio,East North Central Division,Midwest Region,OH,39
22300,"Findlay, OH",39,63,Ohio,East North Central Division,Midwest Region,OH,39
11780,"Ashtabula, OH",39,7,Ohio,East North Central Division,Midwest Region,OH,39
18140,"Columbus, OH",39,73,Ohio,East North Central Division,Midwest Region,OH,39
35940,"Norwalk, OH",39,77,Ohio,East North Central Division,Midwest Region,OH,39
27160,"Jackson, OH",39,79,Ohio,East North Central Division,Midwest Region,OH,39
48260,"Weirton-Steubenville, WV-OH",39,81,Ohio,South Atlantic Division,South Region,OH,54
34540,"Mount Vernon, OH",39,83,Ohio,East North Central Division,Midwest Region,OH,39
17460,"Cleveland-Elyria, OH",39,85,Ohio,East North Central Division,Midwest Region,OH,39
26580,"Huntington-Ashland, WV-KY-OH",39,87,Ohio,South Atlantic Division,South Region,OH,54
18140,"Columbus, OH",39,89,Ohio,East North Central Division,Midwest Region,OH,39
11900,"Athens, OH",39,9,Ohio,East North Central Division,Midwest Region,OH,39
13340,"Bellefontaine, OH",39,91,Ohio,East North Central Division,Midwest Region,OH,39
17460,"Cleveland-Elyria, OH",39,93,Ohio,East North Central Division,Midwest Region,OH,39
45780,"Toledo, OH",39,95,Ohio,East North Central Division,Midwest Region,OH,39
18140,"Columbus, OH",39,97,Ohio,East North Central Division,Midwest Region,OH,39
49660,"Youngstown-Warren-Boardman, OH-PA",39,99,Ohio,East North Central Division,Midwest Region,OH,39
34780,"Muskogee, OK",40,101,Oklahoma,West South Central Division,South Region,OK,40
36420,"Oklahoma City, OK",40,109,Oklahoma,West South Central Division,South Region,OK,40
46140,"Tulsa, OK",40,111,Oklahoma,West South Central Division,South Region,OK,40
46140,"Tulsa, OK",40,113,Oklahoma,West South Central Division,South Region,OK,40
33060,"Miami, OK",40,115,Oklahoma,West South Central Division,South Region,OK,40
46140,"Tulsa, OK",40,117,Oklahoma,West South Central Division,South Region,OK,40
44660,"Stillwater, OK",40,119,Oklahoma,West South Central Division,South Region,OK,40
32540,"McAlester, OK",40,121,Oklahoma,West South Central Division,South Region,OK,40
10220,"Ada, OK",40,123,Oklahoma,West South Central Division,South Region,OK,40
43060,"Shawnee, OK",40,125,Oklahoma,West South Central Division,South Region,OK,40
20460,"Durant, OK",40,13,Oklahoma,West South Central Division,South Region,OK,40
46140,"Tulsa, OK",40,131,Oklahoma,West South Central Division,South Region,OK,40
22900,"Fort Smith, AR-OK",40,135,Oklahoma,West South Central Division,South Region,OK,5
20340,"Duncan, OK",40,137,Oklahoma,West South Central Division,South Region,OK,40
25100,"Guymon, OK",40,139,Oklahoma,West South Central Division,South Region,OK,40
46140,"Tulsa, OK",40,143,Oklahoma,West South Central Division,South Region,OK,40
46140,"Tulsa, OK",40,145,Oklahoma,West South Central Division,South Region,OK,40
12780,"Bartlesville, OK",40,147,Oklahoma,West South Central Division,South Region,OK,40
49260,"Woodward, OK",40,153,Oklahoma,West South Central Division,South Region,OK,40
36420,"Oklahoma City, OK",40,17,Oklahoma,West South Central Division,South Region,OK,40
11620,"Ardmore, OK",40,19,Oklahoma,West South Central Division,South Region,OK,40
45140,"Tahlequah, OK",40,21,Oklahoma,West South Central Division,South Region,OK,40
36420,"Oklahoma City, OK",40,27,Oklahoma,West South Central Division,South Region,OK,40
30020,"Lawton, OK",40,31,Oklahoma,West South Central Division,South Region,OK,40
30020,"Lawton, OK",40,33,Oklahoma,West South Central Division,South Region,OK,40
46140,"Tulsa, OK",40,37,Oklahoma,West South Central Division,South Region,OK,40
48220,"Weatherford, OK",40,39,Oklahoma,West South Central Division,South Region,OK,40
21420,"Enid, OK",40,47,Oklahoma,West South Central Division,South Region,OK,40
36420,"Oklahoma City, OK",40,51,Oklahoma,West South Central Division,South Region,OK,40
11060,"Altus, OK",40,65,Oklahoma,West South Central Division,South Region,OK,40
38620,"Ponca City, OK",40,71,Oklahoma,West South Central Division,South Region,OK,40
22900,"Fort Smith, AR-OK",40,79,Oklahoma,West South Central Division,South Region,OK,5
36420,"Oklahoma City, OK",40,81,Oklahoma,West South Central Division,South Region,OK,40
36420,"Oklahoma City, OK",40,83,Oklahoma,West South Central Division,South Region,OK,40
36420,"Oklahoma City, OK",40,87,Oklahoma,West South Central Division,South Region,OK,40
21120,"Elk City, OK",40,9,Oklahoma,West South Central Division,South Region,OK,40
18300,"Coos Bay, OR",41,11,Oregon,Pacific Division,West Region,OR,41
39260,"Prineville, OR",41,13,Oregon,Pacific Division,West Region,OR,41
15060,"Brookings, OR",41,15,Oregon,Pacific Division,West Region,OR,41
13460,"Bend-Redmond, OR",41,17,Oregon,Pacific Division,West Region,OR,41
40700,"Roseburg, OR",41,19,Oregon,Pacific Division,West Region,OR,41
26220,"Hood River, OR",41,27,Oregon,Pacific Division,West Region,OR,41
32780,"Medford, OR",41,29,Oregon,Pacific Division,West Region,OR,41
18700,"Corvallis, OR",41,3,Oregon,Pacific Division,West Region,OR,41
38060,"Phoenix-Mesa-Scottsdale, AZ",4,13,Arizona,Mountain Division,West Region,AZ,4
24420,"Grants Pass, OR",41,33,Oregon,Pacific Division,West Region,OR,41
28900,"Klamath Falls, OR",41,35,Oregon,Pacific Division,West Region,OR,41
21660,"Eugene, OR",41,39,Oregon,Pacific Division,West Region,OR,41
35440,"Newport, OR",41,41,Oregon,Pacific Division,West Region,OR,41
10540,"Albany, OR",41,43,Oregon,Pacific Division,West Region,OR,41
36620,"Ontario, OR-ID",41,45,Oregon,Pacific Division,West Region,OR,41
41420,"Salem, OR",41,47,Oregon,Pacific Division,West Region,OR,41
25840,"Hermiston-Pendleton, OR",41,49,Oregon,Pacific Division,West Region,OR,41
29420,"Lake Havasu City-Kingman, AZ",4,15,Arizona,Mountain Division,West Region,AZ,4
38900,"Portland-Vancouver-Hillsboro, OR-WA",41,5,Oregon,Pacific Division,West Region,OR,41
38900,"Portland-Vancouver-Hillsboro, OR-WA",41,51,Oregon,Pacific Division,West Region,OR,41
41420,"Salem, OR",41,53,Oregon,Pacific Division,West Region,OR,41
25840,"Hermiston-Pendleton, OR",41,59,Oregon,Pacific Division,West Region,OR,41
29260,"La Grande, OR",41,61,Oregon,Pacific Division,West Region,OR,41
45520,"The Dalles, OR",41,65,Oregon,Pacific Division,West Region,OR,41
38900,"Portland-Vancouver-Hillsboro, OR-WA",41,67,Oregon,Pacific Division,West Region,OR,41
11820,"Astoria, OR",41,7,Oregon,Pacific Division,West Region,OR,41
43320,"Show Low, AZ",4,17,Arizona,Mountain Division,West Region,AZ,4
38900,"Portland-Vancouver-Hillsboro, OR-WA",41,71,Oregon,Pacific Division,West Region,OR,41
38900,"Portland-Vancouver-Hillsboro, OR-WA",41,9,Oregon,Pacific Division,West Region,OR,41
46060,"Tucson, AZ",4,19,Arizona,Mountain Division,West Region,AZ,4
23900,"Gettysburg, PA",42,1,Pennsylvania,Middle Atlantic Division,Northeast Region,PA,42
38060,"Phoenix-Mesa-Scottsdale, AZ",4,21,Arizona,Mountain Division,West Region,AZ,4
37980,"Philadelphia-Camden-Wilmington, PA-NJ-DE-MD",42,101,Pennsylvania,Middle Atlantic Division,Northeast Region,PA,42
35620,"New York-Newark-Jersey City, NY-NJ-PA",42,103,Pennsylvania,Middle Atlantic Division,Northeast Region,PA,36
39060,"Pottsville, PA",42,107,Pennsylvania,Middle Atlantic Division,Northeast Region,PA,42
42780,"Selinsgrove, PA",42,109,Pennsylvania,Middle Atlantic Division,Northeast Region,PA,42
39740,"Reading, PA",42,11,Pennsylvania,Middle Atlantic Division,Northeast Region,PA,42
43740,"Somerset, PA",42,111,Pennsylvania,Middle Atlantic Division,Northeast Region,PA,42
30260,"Lewisburg, PA",42,119,Pennsylvania,Middle Atlantic Division,Northeast Region,PA,42
36340,"Oil City, PA",42,121,Pennsylvania,Middle Atlantic Division,Northeast Region,PA,42
47620,"Warren, PA",42,123,Pennsylvania,Middle Atlantic Division,Northeast Region,PA,42
38300,"Pittsburgh, PA",42,125,Pennsylvania,Middle Atlantic Division,Northeast Region,PA,42
38300,"Pittsburgh, PA",42,129,Pennsylvania,Middle Atlantic Division,Northeast Region,PA,42
11020,"Altoona, PA",42,13,Pennsylvania,Middle Atlantic Division,Northeast Region,PA,42
42540,"Scranton--Wilkes-Barre--Hazleton, PA",42,131,Pennsylvania,Middle Atlantic Division,Northeast Region,PA,42
49620,"York-Hanover, PA",42,133,Pennsylvania,Middle Atlantic Division,Northeast Region,PA,42
42380,"Sayre, PA",42,15,Pennsylvania,Middle Atlantic Division,Northeast Region,PA,42
37980,"Philadelphia-Camden-Wilmington, PA-NJ-DE-MD",42,17,Pennsylvania,Middle Atlantic Division,Northeast Region,PA,42
38300,"Pittsburgh, PA",42,19,Pennsylvania,Middle Atlantic Division,Northeast Region,PA,42
27780,"Johnstown, PA",42,21,Pennsylvania,Middle Atlantic Division,Northeast Region,PA,42
10900,"Allentown-Bethlehem-Easton, PA-NJ",42,25,Pennsylvania,Middle Atlantic Division,Northeast Region,PA,42
44300,"State College, PA",42,27,Pennsylvania,Middle Atlantic Division,Northeast Region,PA,42
37980,"Philadelphia-Camden-Wilmington, PA-NJ-DE-MD",42,29,Pennsylvania,Middle Atlantic Division,Northeast Region,PA,42
35700,"Nogales, AZ",4,23,Arizona,Mountain Division,West Region,AZ,4
38300,"Pittsburgh, PA",42,3,Pennsylvania,Middle Atlantic Division,Northeast Region,PA,42
20180,"DuBois, PA",42,33,Pennsylvania,Middle Atlantic Division,Northeast Region,PA,42
30820,"Lock Haven, PA",42,35,Pennsylvania,Middle Atlantic Division,Northeast Region,PA,42
14100,"Bloomsburg-Berwick, PA",42,37,Pennsylvania,Middle Atlantic Division,Northeast Region,PA,42
32740,"Meadville, PA",42,39,Pennsylvania,Middle Atlantic Division,Northeast Region,PA,42
25420,"Harrisburg-Carlisle, PA",42,41,Pennsylvania,Middle Atlantic Division,Northeast Region,PA,42
25420,"Harrisburg-Carlisle, PA",42,43,Pennsylvania,Middle Atlantic Division,Northeast Region,PA,42
37980,"Philadelphia-Camden-Wilmington, PA-NJ-DE-MD",42,45,Pennsylvania,Middle Atlantic Division,Northeast Region,PA,42
41260,"St. Marys, PA",42,47,Pennsylvania,Middle Atlantic Division,Northeast Region,PA,42
21500,"Erie, PA",42,49,Pennsylvania,Middle Atlantic Division,Northeast Region,PA,42
38300,"Pittsburgh, PA",42,5,Pennsylvania,Middle Atlantic Division,Northeast Region,PA,42
39140,"Prescott, AZ",4,25,Arizona,Mountain Division,West Region,AZ,4
38300,"Pittsburgh, PA",42,51,Pennsylvania,Middle Atlantic Division,Northeast Region,PA,42
16540,"Chambersburg-Waynesboro, PA",42,55,Pennsylvania,Middle Atlantic Division,Northeast Region,PA,42
26500,"Huntingdon, PA",42,61,Pennsylvania,Middle Atlantic Division,Northeast Region,PA,42
26860,"Indiana, PA",42,63,Pennsylvania,Middle Atlantic Division,Northeast Region,PA,42
42540,"Scranton--Wilkes-Barre--Hazleton, PA",42,69,Pennsylvania,Middle Atlantic Division,Northeast Region,PA,42
38300,"Pittsburgh, PA",42,7,Pennsylvania,Middle Atlantic Division,Northeast Region,PA,42
49740,"Yuma, AZ",4,27,Arizona,Mountain Division,West Region,AZ,4
29540,"Lancaster, PA",42,71,Pennsylvania,Middle Atlantic Division,Northeast Region,PA,42
35260,"New Castle, PA",42,73,Pennsylvania,Middle Atlantic Division,Northeast Region,PA,42
30140,"Lebanon, PA",42,75,Pennsylvania,Middle Atlantic Division,Northeast Region,PA,42
10900,"Allentown-Bethlehem-Easton, PA-NJ",42,77,Pennsylvania,Middle Atlantic Division,Northeast Region,PA,42
42540,"Scranton--Wilkes-Barre--Hazleton, PA",42,79,Pennsylvania,Middle Atlantic Division,Northeast Region,PA,42
48700,"Williamsport, PA",42,81,Pennsylvania,Middle Atlantic Division,Northeast Region,PA,42
14620,"Bradford, PA",42,83,Pennsylvania,Middle Atlantic Division,Northeast Region,PA,42
49660,"Youngstown-Warren-Boardman, OH-PA",42,85,Pennsylvania,East North Central Division,Midwest Region,PA,39
30380,"Lewistown, PA",42,87,Pennsylvania,Middle Atlantic Division,Northeast Region,PA,42
20700,"East Stroudsburg, PA",42,89,Pennsylvania,Middle Atlantic Division,Northeast Region,PA,42
37980,"Philadelphia-Camden-Wilmington, PA-NJ-DE-MD",42,91,Pennsylvania,Middle Atlantic Division,Northeast Region,PA,42
14100,"Bloomsburg-Berwick, PA",42,93,Pennsylvania,Middle Atlantic Division,Northeast Region,PA,42
10900,"Allentown-Bethlehem-Easton, PA-NJ",42,95,Pennsylvania,Middle Atlantic Division,Northeast Region,PA,42
44980,"Sunbury, PA",42,97,Pennsylvania,Middle Atlantic Division,Northeast Region,PA,42
25420,"Harrisburg-Carlisle, PA",42,99,Pennsylvania,Middle Atlantic Division,Northeast Region,PA,42
43420,"Sierra Vista-Douglas, AZ",4,3,Arizona,Mountain Division,West Region,AZ,4
39300,"Providence-Warwick, RI-MA",44,1,Rhode Island,New England Division,Northeast Region,RI,44
39300,"Providence-Warwick, RI-MA",44,3,Rhode Island,New England Division,Northeast Region,RI,44
39300,"Providence-Warwick, RI-MA",44,5,Rhode Island,New England Division,Northeast Region,RI,44
39300,"Providence-Warwick, RI-MA",44,7,Rhode Island,New England Division,Northeast Region,RI,44
39300,"Providence-Warwick, RI-MA",44,9,Rhode Island,New England Division,Northeast Region,RI,44
22380,"Flagstaff, AZ",4,5,Arizona,Mountain Division,West Region,AZ,4
24940,"Greenwood, SC",45,1,South Carolina,South Atlantic Division,South Region,SC,45
25940,"Hilton Head Island-Bluffton-Beaufort, SC",45,13,South Carolina,South Atlantic Division,South Region,SC,45
16700,"Charleston-North Charleston, SC",45,15,South Carolina,South Atlantic Division,South Region,SC,45
17900,"Columbia, SC",45,17,South Carolina,South Atlantic Division,South Region,SC,45
16700,"Charleston-North Charleston, SC",45,19,South Carolina,South Atlantic Division,South Region,SC,45
23500,"Gaffney, SC",45,21,South Carolina,South Atlantic Division,South Region,SC,45
16740,"Charlotte-Concord-Gastonia, NC-SC",45,23,South Carolina,South Atlantic Division,South Region,SC,37
12260,"Augusta-Richmond County, GA-SC",45,3,South Carolina,South Atlantic Division,South Region,SC,13
22500,"Florence, SC",45,31,South Carolina,South Atlantic Division,South Region,SC,45
16700,"Charleston-North Charleston, SC",45,35,South Carolina,South Atlantic Division,South Region,SC,45
12260,"Augusta-Richmond County, GA-SC",45,37,South Carolina,South Atlantic Division,South Region,SC,13
17900,"Columbia, SC",45,39,South Carolina,South Atlantic Division,South Region,SC,45
22500,"Florence, SC",45,41,South Carolina,South Atlantic Division,South Region,SC,45
23860,"Georgetown, SC",45,43,South Carolina,South Atlantic Division,South Region,SC,45
24860,"Greenville-Anderson-Mauldin, SC",45,45,South Carolina,South Atlantic Division,South Region,SC,45
24940,"Greenwood, SC",45,47,South Carolina,South Atlantic Division,South Region,SC,45
34820,"Myrtle Beach-Conway-North Myrtle Beach, SC-NC",45,51,South Carolina,South Atlantic Division,South Region,SC,45
25940,"Hilton Head Island-Bluffton-Beaufort, SC",45,53,South Carolina,South Atlantic Division,South Region,SC,45
17900,"Columbia, SC",45,55,South Carolina,South Atlantic Division,South Region,SC,45
16740,"Charlotte-Concord-Gastonia, NC-SC",45,57,South Carolina,South Atlantic Division,South Region,SC,37
24860,"Greenville-Anderson-Mauldin, SC",45,59,South Carolina,South Atlantic Division,South Region,SC,45
17900,"Columbia, SC",45,63,South Carolina,South Atlantic Division,South Region,SC,45
13500,"Bennettsville, SC",45,69,South Carolina,South Atlantic Division,South Region,SC,45
24860,"Greenville-Anderson-Mauldin, SC",45,7,South Carolina,South Atlantic Division,South Region,SC,45
35140,"Newberry, SC",45,71,South Carolina,South Atlantic Division,South Region,SC,45
42860,"Seneca, SC",45,73,South Carolina,South Atlantic Division,South Region,SC,45
36700,"Orangeburg, SC",45,75,South Carolina,South Atlantic Division,South Region,SC,45
24860,"Greenville-Anderson-Mauldin, SC",45,77,South Carolina,South Atlantic Division,South Region,SC,45
17900,"Columbia, SC",45,79,South Carolina,South Atlantic Division,South Region,SC,45
17900,"Columbia, SC",45,81,South Carolina,South Atlantic Division,South Region,SC,45
43900,"Spartanburg, SC",45,83,South Carolina,South Atlantic Division,South Region,SC,45
44940,"Sumter, SC",45,85,South Carolina,South Atlantic Division,South Region,SC,45
43900,"Spartanburg, SC",45,87,South Carolina,South Atlantic Division,South Region,SC,45
16740,"Charlotte-Concord-Gastonia, NC-SC",45,91,South Carolina,South Atlantic Division,South Region,SC,37
39660,"Rapid City, SD",46,103,South Dakota,West North Central Division,Midwest Region,SD,46
15100,"Brookings, SD",46,11,South Dakota,West North Central Division,Midwest Region,SD,46
38180,"Pierre, SD",46,117,South Dakota,West North Central Division,Midwest Region,SD,46
38180,"Pierre, SD",46,119,South Dakota,West North Central Division,Midwest Region,SD,46
43620,"Sioux Falls, SD",46,125,South Dakota,West North Central Division,Midwest Region,SD,46
43580,"Sioux City, IA-NE-SD",46,127,South Dakota,West North Central Division,Midwest Region,SD,19
10100,"Aberdeen, SD",46,13,South Dakota,West North Central Division,Midwest Region,SD,46
49460,"Yankton, SD",46,135,South Dakota,West North Central Division,Midwest Region,SD,46
46820,"Vermillion, SD",46,27,South Dakota,West North Central Division,Midwest Region,SD,46
47980,"Watertown, SD",46,29,South Dakota,West North Central Division,Midwest Region,SD,46
39660,"Rapid City, SD",46,33,South Dakota,West North Central Division,Midwest Region,SD,46
33580,"Mitchell, SD",46,35,South Dakota,West North Central Division,Midwest Region,SD,46
10100,"Aberdeen, SD",46,45,South Dakota,West North Central Division,Midwest Region,SD,46
26700,"Huron, SD",46,5,South Dakota,West North Central Division,Midwest Region,SD,46
33580,"Mitchell, SD",46,61,South Dakota,West North Central Division,Midwest Region,SD,46
38180,"Pierre, SD",46,65,South Dakota,West North Central Division,Midwest Region,SD,46
43940,"Spearfish, SD",46,81,South Dakota,West North Central Division,Midwest Region,SD,46
43620,"Sioux Falls, SD",46,83,South Dakota,West North Central Division,Midwest Region,SD,46
43620,"Sioux Falls, SD",46,87,South Dakota,West North Central Division,Midwest Region,SD,46
39660,"Rapid City, SD",46,93,South Dakota,West North Central Division,Midwest Region,SD,46
43620,"Sioux Falls, SD",46,99,South Dakota,West North Central Division,Midwest Region,SD,46
37740,"Payson, AZ",4,7,Arizona,Mountain Division,West Region,AZ,4
28940,"Knoxville, TN",47,1,Tennessee,East South Central Division,South Region,TN,47
28940,"Knoxville, TN",47,105,Tennessee,East South Central Division,South Region,TN,47
11940,"Athens, TN",47,107,Tennessee,East South Central Division,South Region,TN,47
17420,"Cleveland, TN",47,11,Tennessee,East South Central Division,South Region,TN,47
34980,"Nashville-Davidson--Murfreesboro--Franklin, TN",47,111,Tennessee,East South Central Division,South Region,TN,47
27180,"Jackson, TN",47,113,Tennessee,East South Central Division,South Region,TN,47
16860,"Chattanooga, TN-GA",47,115,Tennessee,East South Central Division,South Region,TN,47
30280,"Lewisburg, TN",47,117,Tennessee,East South Central Division,South Region,TN,47
34980,"Nashville-Davidson--Murfreesboro--Franklin, TN",47,119,Tennessee,East South Central Division,South Region,TN,47
17300,"Clarksville, TN-KY",47,125,Tennessee,East South Central Division,South Region,TN,47
46100,"Tullahoma-Manchester, TN",47,127,Tennessee,East South Central Division,South Region,TN,47
28940,"Knoxville, TN",47,129,Tennessee,East South Central Division,South Region,TN,47
28940,"Knoxville, TN",47,13,Tennessee,East South Central Division,South Region,TN,47
46460,"Union City, TN-KY",47,131,Tennessee,East South Central Division,South Region,TN,47
18260,"Cookeville, TN",47,133,Tennessee,East South Central Division,South Region,TN,47
17420,"Cleveland, TN",47,139,Tennessee,East South Central Division,South Region,TN,47
18260,"Cookeville, TN",47,141,Tennessee,East South Central Division,South Region,TN,47
19420,"Dayton, TN",47,143,Tennessee,East South Central Division,South Region,TN,47
28940,"Knoxville, TN",47,145,Tennessee,East South Central Division,South Region,TN,47
34980,"Nashville-Davidson--Murfreesboro--Franklin, TN",47,147,Tennessee,East South Central Division,South Region,TN,47
34980,"Nashville-Davidson--Murfreesboro--Franklin, TN",47,149,Tennessee,East South Central Division,South Region,TN,47
34980,"Nashville-Davidson--Murfreesboro--Franklin, TN",47,15,Tennessee,East South Central Division,South Region,TN,47
16860,"Chattanooga, TN-GA",47,153,Tennessee,East South Central Division,South Region,TN,47
42940,"Sevierville, TN",47,155,Tennessee,East South Central Division,South Region,TN,47
32820,"Memphis, TN-MS-AR",47,157,Tennessee,East South Central Division,South Region,TN,47
34980,"Nashville-Davidson--Murfreesboro--Franklin, TN",47,159,Tennessee,East South Central Division,South Region,TN,47
28700,"Kingsport-Bristol-Bristol, TN-VA",47,163,Tennessee,East South Central Division,South Region,TN,47
34980,"Nashville-Davidson--Murfreesboro--Franklin, TN",47,165,Tennessee,East South Central Division,South Region,TN,47
32820,"Memphis, TN-MS-AR",47,167,Tennessee,East South Central Division,South Region,TN,47
34980,"Nashville-Davidson--Murfreesboro--Franklin, TN",47,169,Tennessee,East South Central Division,South Region,TN,47
27740,"Johnson City, TN",47,171,Tennessee,East South Central Division,South Region,TN,47
28940,"Knoxville, TN",47,173,Tennessee,East South Central Division,South Region,TN,47
32660,"McMinnville, TN",47,177,Tennessee,East South Central Division,South Region,TN,47
27740,"Johnson City, TN",47,179,Tennessee,East South Central Division,South Region,TN,47
32280,"Martin, TN",47,183,Tennessee,East South Central Division,South Region,TN,47
34980,"Nashville-Davidson--Murfreesboro--Franklin, TN",47,187,Tennessee,East South Central Division,South Region,TN,47
34980,"Nashville-Davidson--Murfreesboro--Franklin, TN",47,189,Tennessee,East South Central Division,South Region,TN,47
27740,"Johnson City, TN",47,19,Tennessee,East South Central Division,South Region,TN,47
34980,"Nashville-Davidson--Murfreesboro--Franklin, TN",47,21,Tennessee,East South Central Division,South Region,TN,47
27180,"Jackson, TN",47,23,Tennessee,East South Central Division,South Region,TN,47
35460,"Newport, TN",47,29,Tennessee,East South Central Division,South Region,TN,47
43180,"Shelbyville, TN",47,3,Tennessee,East South Central Division,South Region,TN,47
46100,"Tullahoma-Manchester, TN",47,31,Tennessee,East South Central Division,South Region,TN,47
27180,"Jackson, TN",47,33,Tennessee,East South Central Division,South Region,TN,47
18900,"Crossville, TN",47,35,Tennessee,East South Central Division,South Region,TN,47
34980,"Nashville-Davidson--Murfreesboro--Franklin, TN",47,37,Tennessee,East South Central Division,South Region,TN,47
34980,"Nashville-Davidson--Murfreesboro--Franklin, TN",47,43,Tennessee,East South Central Division,South Region,TN,47
20540,"Dyersburg, TN",47,45,Tennessee,East South Central Division,South Region,TN,47
32820,"Memphis, TN-MS-AR",47,47,Tennessee,East South Central Division,South Region,TN,47
46100,"Tullahoma-Manchester, TN",47,51,Tennessee,East South Central Division,South Region,TN,47
28940,"Knoxville, TN",47,57,Tennessee,East South Central Division,South Region,TN,47
24620,"Greeneville, TN",47,59,Tennessee,East South Central Division,South Region,TN,47
34100,"Morristown, TN",47,63,Tennessee,East South Central Division,South Region,TN,47
16860,"Chattanooga, TN-GA",47,65,Tennessee,East South Central Division,South Region,TN,47
28700,"Kingsport-Bristol-Bristol, TN-VA",47,73,Tennessee,East South Central Division,South Region,TN,47
15140,"Brownsville, TN",47,75,Tennessee,East South Central Division,South Region,TN,47
37540,"Paris, TN",47,79,Tennessee,East South Central Division,South Region,TN,47
34980,"Nashville-Davidson--Murfreesboro--Franklin, TN",47,81,Tennessee,East South Central Division,South Region,TN,47
18260,"Cookeville, TN",47,87,Tennessee,East South Central Division,South Region,TN,47
34100,"Morristown, TN",47,89,Tennessee,East South Central Division,South Region,TN,47
28940,"Knoxville, TN",47,9,Tennessee,East South Central Division,South Region,TN,47
28940,"Knoxville, TN",47,93,Tennessee,East South Central Division,South Region,TN,47
29980,"Lawrenceburg, TN",47,99,Tennessee,East South Central Division,South Region,TN,47
37300,"Palestine, TX",48,1,Texas,West South Central Division,South Region,TX,48
31180,"Lubbock, TX",48,107,Texas,West South Central Division,South Region,TX,48
11100,"Amarillo, TX",48,11,Texas,West South Central Division,South Region,TX,48
19100,"Dallas-Fort Worth-Arlington, TX",48,113,Texas,West South Central Division,South Region,TX,48
29500,"Lamesa, TX",48,115,Texas,West South Central Division,South Region,TX,48
25820,"Hereford, TX",48,117,Texas,West South Central Division,South Region,TX,48
19100,"Dallas-Fort Worth-Arlington, TX",48,121,Texas,West South Central Division,South Region,TX,48
41700,"San Antonio-New Braunfels, TX",48,13,Texas,West South Central Division,South Region,TX,48
36220,"Odessa, TX",48,135,Texas,West South Central Division,South Region,TX,48
19100,"Dallas-Fort Worth-Arlington, TX",48,139,Texas,West South Central Division,South Region,TX,48
21340,"El Paso, TX",48,141,Texas,West South Central Division,South Region,TX,48
44500,"Stephenville, TX",48,143,Texas,West South Central Division,South Region,TX,48
47380,"Waco, TX",48,145,Texas,West South Central Division,South Region,TX,48
14300,"Bonham, TX",48,147,Texas,West South Central Division,South Region,TX,48
26420,"Houston-The Woodlands-Sugar Land, TX",48,15,Texas,West South Central Division,South Region,TX,48
26420,"Houston-The Woodlands-Sugar Land, TX",48,157,Texas,West South Central Division,South Region,TX,48
26420,"Houston-The Woodlands-Sugar Land, TX",48,167,Texas,West South Central Division,South Region,TX,48
23240,"Fredericksburg, TX",48,171,Texas,West South Central Division,South Region,TX,48
13700,"Big Spring, TX",48,173,Texas,West South Central Division,South Region,TX,48
47020,"Victoria, TX",48,175,Texas,West South Central Division,South Region,TX,48
37420,"Pampa, TX",48,179,Texas,West South Central Division,South Region,TX,48
43300,"Sherman-Denison, TX",48,181,Texas,West South Central Division,South Region,TX,48
30980,"Longview, TX",48,183,Texas,West South Central Division,South Region,TX,48
41700,"San Antonio-New Braunfels, TX",48,187,Texas,West South Central Division,South Region,TX,48
38380,"Plainview, TX",48,189,Texas,West South Central Division,South Region,TX,48
41700,"San Antonio-New Braunfels, TX",48,19,Texas,West South Central Division,South Region,TX,48
13140,"Beaumont-Port Arthur, TX",48,199,Texas,West South Central Division,South Region,TX,48
26420,"Houston-The Woodlands-Sugar Land, TX",48,201,Texas,West South Central Division,South Region,TX,48
32220,"Marshall, TX",48,203,Texas,West South Central Division,South Region,TX,48
12420,"Austin-Round Rock, TX",48,209,Texas,West South Central Division,South Region,TX,48
12420,"Austin-Round Rock, TX",48,21,Texas,West South Central Division,South Region,TX,48
11980,"Athens, TX",48,213,Texas,West South Central Division,South Region,TX,48
32580,"McAllen-Edinburg-Mission, TX",48,215,Texas,West South Central Division,South Region,TX,48
30220,"Levelland, TX",48,219,Texas,West South Central Division,South Region,TX,48
19100,"Dallas-Fort Worth-Arlington, TX",48,221,Texas,West South Central Division,South Region,TX,48
44860,"Sulphur Springs, TX",48,223,Texas,West South Central Division,South Region,TX,48
13700,"Big Spring, TX",48,227,Texas,West South Central Division,South Region,TX,48
21340,"El Paso, TX",48,229,Texas,West South Central Division,South Region,TX,48
19100,"Dallas-Fort Worth-Arlington, TX",48,231,Texas,West South Central Division,South Region,TX,48
14420,"Borger, TX",48,233,Texas,West South Central Division,South Region,TX,48
41660,"San Angelo, TX",48,235,Texas,West South Central Division,South Region,TX,48
13140,"Beaumont-Port Arthur, TX",48,245,Texas,West South Central Division,South Region,TX,48
10860,"Alice, TX",48,249,Texas,West South Central Division,South Region,TX,48
13300,"Beeville, TX",48,25,Texas,West South Central Division,South Region,TX,48
19100,"Dallas-Fort Worth-Arlington, TX",48,251,Texas,West South Central Division,South Region,TX,48
10180,"Abilene, TX",48,253,Texas,West South Central Division,South Region,TX,48
19100,"Dallas-Fort Worth-Arlington, TX",48,257,Texas,West South Central Division,South Region,TX,48
41700,"San Antonio-New Braunfels, TX",48,259,Texas,West South Central Division,South Region,TX,48
28780,"Kingsville, TX",48,261,Texas,West South Central Division,South Region,TX,48
28500,"Kerrville, TX",48,265,Texas,West South Central Division,South Region,TX,48
28660,"Killeen-Temple, TX",48,27,Texas,West South Central Division,South Region,TX,48
28780,"Kingsville, TX",48,273,Texas,West South Central Division,South Region,TX,48
37580,"Paris, TX",48,277,Texas,West South Central Division,South Region,TX,48
28660,"Killeen-Temple, TX",48,281,Texas,West South Central Division,South Region,TX,48
41700,"San Antonio-New Braunfels, TX",48,29,Texas,West South Central Division,South Region,TX,48
26420,"Houston-The Woodlands-Sugar Land, TX",48,291,Texas,West South Central Division,South Region,TX,48
11380,"Andrews, TX",48,3,Texas,West South Central Division,South Region,TX,48
31180,"Lubbock, TX",48,303,Texas,West South Central Division,South Region,TX,48
31180,"Lubbock, TX",48,305,Texas,West South Central Division,South Region,TX,48
47380,"Waco, TX",48,309,Texas,West South Central Division,South Region,TX,48
33260,"Midland, TX",48,317,Texas,West South Central Division,South Region,TX,48
13060,"Bay City, TX",48,321,Texas,West South Central Division,South Region,TX,48
20580,"Eagle Pass, TX",48,323,Texas,West South Central Division,South Region,TX,48
41700,"San Antonio-New Braunfels, TX",48,325,Texas,West South Central Division,South Region,TX,48
33260,"Midland, TX",48,329,Texas,West South Central Division,South Region,TX,48
26420,"Houston-The Woodlands-Sugar Land, TX",48,339,Texas,West South Central Division,South Region,TX,48
20300,"Dumas, TX",48,341,Texas,West South Central Division,South Region,TX,48
34860,"Nacogdoches, TX",48,347,Texas,West South Central Division,South Region,TX,48
18620,"Corsicana, TX",48,349,Texas,West South Central Division,South Region,TX,48
13140,"Beaumont-Port Arthur, TX",48,351,Texas,West South Central Division,South Region,TX,48
45020,"Sweetwater, TX",48,353,Texas,West South Central Division,South Region,TX,48
18580,"Corpus Christi, TX",48,355,Texas,West South Central Division,South Region,TX,48
11100,"Amarillo, TX",48,359,Texas,West South Central Division,South Region,TX,48
13140,"Beaumont-Port Arthur, TX",48,361,Texas,West South Central Division,South Region,TX,48
33420,"Mineral Wells, TX",48,363,Texas,West South Central Division,South Region,TX,48
19100,"Dallas-Fort Worth-Arlington, TX",48,367,Texas,West South Central Division,South Region,TX,48
45500,"Texarkana, TX-AR",48,37,Texas,West South Central Division,South Region,TX,48
11100,"Amarillo, TX",48,375,Texas,West South Central Division,South Region,TX,48
11100,"Amarillo, TX",48,381,Texas,West South Central Division,South Region,TX,48
37780,"Pecos, TX",48,389,Texas,West South Central Division,South Region,TX,48
26420,"Houston-The Woodlands-Sugar Land, TX",48,39,Texas,West South Central Division,South Region,TX,48
17780,"College Station-Bryan, TX",48,395,Texas,West South Central Division,South Region,TX,48
19100,"Dallas-Fort Worth-Arlington, TX",48,397,Texas,West South Central Division,South Region,TX,48
30980,"Longview, TX",48,401,Texas,West South Central Division,South Region,TX,48
18580,"Corpus Christi, TX",48,409,Texas,West South Central Division,South Region,TX,48
17780,"College Station-Bryan, TX",48,41,Texas,West South Central Division,South Region,TX,48
43660,"Snyder, TX",48,415,Texas,West South Central Division,South Region,TX,48
46340,"Tyler, TX",48,423,Texas,West South Central Division,South Region,TX,48
19100,"Dallas-Fort Worth-Arlington, TX",48,425,Texas,West South Central Division,South Region,TX,48
40100,"Rio Grande City, TX",48,427,Texas,West South Central Division,South Region,TX,48
19100,"Dallas-Fort Worth-Arlington, TX",48,439,Texas,West South Central Division,South Region,TX,48
10180,"Abilene, TX",48,441,Texas,West South Central Division,South Region,TX,48
34420,"Mount Pleasant, TX",48,449,Texas,West South Central Division,South Region,TX,48
41660,"San Angelo, TX",48,451,Texas,West South Central Division,South Region,TX,48
12420,"Austin-Round Rock, TX",48,453,Texas,West South Central Division,South Region,TX,48
26660,"Huntsville, TX",48,455,Texas,West South Central Division,South Region,TX,48
30980,"Longview, TX",48,459,Texas,West South Central Division,South Region,TX,48
46620,"Uvalde, TX",48,463,Texas,West South Central Division,South Region,TX,48
19620,"Del Rio, TX",48,465,Texas,West South Central Division,South Region,TX,48
47020,"Victoria, TX",48,469,Texas,West South Central Division,South Region,TX,48
26660,"Huntsville, TX",48,471,Texas,West South Central Division,South Region,TX,48
26420,"Houston-The Woodlands-Sugar Land, TX",48,473,Texas,West South Central Division,South Region,TX,48
14780,"Brenham, TX",48,477,Texas,West South Central Division,South Region,TX,48
29700,"Laredo, TX",48,479,Texas,West South Central Division,South Region,TX,48
20900,"El Campo, TX",48,481,Texas,West South Central Division,South Region,TX,48
48660,"Wichita Falls, TX",48,485,Texas,West South Central Division,South Region,TX,48
46900,"Vernon, TX",48,487,Texas,West South Central Division,South Region,TX,48
39700,"Raymondville, TX",48,489,Texas,West South Central Division,South Region,TX,48
15220,"Brownwood, TX",48,49,Texas,West South Central Division,South Region,TX,48
12420,"Austin-Round Rock, TX",48,491,Texas,West South Central Division,South Region,TX,48
41700,"San Antonio-New Braunfels, TX",48,493,Texas,West South Central Division,South Region,TX,48
19100,"Dallas-Fort Worth-Arlington, TX",48,497,Texas,West South Central Division,South Region,TX,48
31260,"Lufkin, TX",48,5,Texas,West South Central Division,South Region,TX,48
49820,"Zapata, TX",48,505,Texas,West South Central Division,South Region,TX,48
17780,"College Station-Bryan, TX",48,51,Texas,West South Central Division,South Region,TX,48
12420,"Austin-Round Rock, TX",48,55,Texas,West South Central Division,South Region,TX,48
38920,"Port Lavaca, TX",48,57,Texas,West South Central Division,South Region,TX,48
10180,"Abilene, TX",48,59,Texas,West South Central Division,South Region,TX,48
15180,"Brownsville-Harlingen, TX",48,61,Texas,West South Central Division,South Region,TX,48
11100,"Amarillo, TX",48,65,Texas,West South Central Division,South Region,TX,48
18580,"Corpus Christi, TX",48,7,Texas,West South Central Division,South Region,TX,48
26420,"Houston-The Woodlands-Sugar Land, TX",48,71,Texas,West South Central Division,South Region,TX,48
27380,"Jacksonville, TX",48,73,Texas,West South Central Division,South Region,TX,48
48660,"Wichita Falls, TX",48,77,Texas,West South Central Division,South Region,TX,48
19100,"Dallas-Fort Worth-Arlington, TX",48,85,Texas,West South Central Division,South Region,TX,48
48660,"Wichita Falls, TX",48,9,Texas,West South Central Division,South Region,TX,48
41700,"San Antonio-New Braunfels, TX",48,91,Texas,West South Central Division,South Region,TX,48
23620,"Gainesville, TX",48,97,Texas,West South Central Division,South Region,TX,48
28660,"Killeen-Temple, TX",48,99,Texas,West South Central Division,South Region,TX,48
40940,"Safford, AZ",4,9,Arizona,Mountain Division,West Region,AZ,4
36260,"Ogden-Clearfield, UT",49,11,Utah,Mountain Division,West Region,UT,49
16260,"Cedar City, UT",49,21,Utah,Mountain Division,West Region,UT,49
39340,"Provo-Orem, UT",49,23,Utah,Mountain Division,West Region,UT,49
36260,"Ogden-Clearfield, UT",49,29,Utah,Mountain Division,West Region,UT,49
36260,"Ogden-Clearfield, UT",49,3,Utah,Mountain Division,West Region,UT,49
41620,"Salt Lake City, UT",49,35,Utah,Mountain Division,West Region,UT,49
44920,"Summit Park, UT",49,43,Utah,Mountain Division,West Region,UT,49
41620,"Salt Lake City, UT",49,45,Utah,Mountain Division,West Region,UT,49
46860,"Vernal, UT",49,47,Utah,Mountain Division,West Region,UT,49
39340,"Provo-Orem, UT",49,49,Utah,Mountain Division,West Region,UT,49
30860,"Logan, UT-ID",49,5,Utah,Mountain Division,West Region,UT,49
25720,"Heber, UT",49,51,Utah,Mountain Division,West Region,UT,49
41100,"St. George, UT",49,53,Utah,Mountain Division,West Region,UT,49
36260,"Ogden-Clearfield, UT",49,57,Utah,Mountain Division,West Region,UT,49
39220,"Price, UT",49,7,Utah,Mountain Division,West Region,UT,49
15540,"Burlington-South Burlington, VT",50,11,Vermont,New England Division,Northeast Region,VT,50
15540,"Burlington-South Burlington, VT",50,13,Vermont,New England Division,Northeast Region,VT,50
17200,"Claremont-Lebanon, NH-VT",50,17,Vermont,New England Division,Northeast Region,VT,33
40860,"Rutland, VT",50,21,Vermont,New England Division,Northeast Region,VT,50
12740,"Barre, VT",50,23,Vermont,New England Division,Northeast Region,VT,50
17200,"Claremont-Lebanon, NH-VT",50,27,Vermont,New England Division,Northeast Region,VT,33
13540,"Bennington, VT",50,3,Vermont,New England Division,Northeast Region,VT,50
15540,"Burlington-South Burlington, VT",50,7,Vermont,New England Division,Northeast Region,VT,50
13620,"Berlin, NH-VT",50,9,Vermont,New England Division,Northeast Region,VT,33
25460,"Harrison, AR",5,101,Arkansas,West South Central Division,South Region,AR,5
15780,"Camden, AR",5,103,Arkansas,West South Central Division,South Region,AR,5
30780,"Little Rock-North Little Rock-Conway, AR",5,105,Arkansas,West South Central Division,South Region,AR,5
25760,"Helena-West Helena, AR",5,107,Arkansas,West South Central Division,South Region,AR,5
40060,"Richmond, VA",51,101,Virginia,South Atlantic Division,South Region,VA,51
47900,"Washington-Arlington-Alexandria, DC-VA-MD-WV",51,107,Virginia,South Atlantic Division,South Region,VA,11
27860,"Jonesboro, AR",5,111,Arkansas,West South Central Division,South Region,AR,5
31340,"Lynchburg, VA",51,11,Virginia,South Atlantic Division,South Region,VA,51
47260,"Virginia Beach-Norfolk-Newport News, VA-NC",51,115,Virginia,South Atlantic Division,South Region,VA,51
13980,"Blacksburg-Christiansburg-Radford, VA",51,121,Virginia,South Atlantic Division,South Region,VA,51
16820,"Charlottesville, VA",51,125,Virginia,South Atlantic Division,South Region,VA,51
40060,"Richmond, VA",51,127,Virginia,South Atlantic Division,South Region,VA,51
47900,"Washington-Arlington-Alexandria, DC-VA-MD-WV",51,13,Virginia,South Atlantic Division,South Region,VA,11
19260,"Danville, VA",51,143,Virginia,South Atlantic Division,South Region,VA,51
40060,"Richmond, VA",51,145,Virginia,South Atlantic Division,South Region,VA,51
40060,"Richmond, VA",51,149,Virginia,South Atlantic Division,South Region,VA,51
40780,"Russellville, AR",5,115,Arkansas,West South Central Division,South Region,AR,5
44420,"Staunton-Waynesboro, VA",51,15,Virginia,South Atlantic Division,South Region,VA,51
47900,"Washington-Arlington-Alexandria, DC-VA-MD-WV",51,153,Virginia,South Atlantic Division,South Region,VA,11
13980,"Blacksburg-Christiansburg-Radford, VA",51,155,Virginia,South Atlantic Division,South Region,VA,51
47900,"Washington-Arlington-Alexandria, DC-VA-MD-WV",51,157,Virginia,South Atlantic Division,South Region,VA,11
40220,"Roanoke, VA",51,161,Virginia,South Atlantic Division,South Region,VA,51
25500,"Harrisonburg, VA",51,165,Virginia,South Atlantic Division,South Region,VA,51
28700,"Kingsport-Bristol-Bristol, TN-VA",51,169,Virginia,East South Central Division,South Region,VA,47
47900,"Washington-Arlington-Alexandria, DC-VA-MD-WV",51,177,Virginia,South Atlantic Division,South Region,VA,11
47900,"Washington-Arlington-Alexandria, DC-VA-MD-WV",51,179,Virginia,South Atlantic Division,South Region,VA,11
40060,"Richmond, VA",51,183,Virginia,South Atlantic Division,South Region,VA,51
14140,"Bluefield, WV-VA",51,185,Virginia,South Atlantic Division,South Region,VA,54
47900,"Washington-Arlington-Alexandria, DC-VA-MD-WV",51,187,Virginia,South Atlantic Division,South Region,VA,11
30780,"Little Rock-North Little Rock-Conway, AR",5,119,Arkansas,West South Central Division,South Region,AR,5
31340,"Lynchburg, VA",51,19,Virginia,South Atlantic Division,South Region,VA,51
28700,"Kingsport-Bristol-Bristol, TN-VA",51,191,Virginia,East South Central Division,South Region,VA,47
13720,"Big Stone Gap, VA",51,195,Virginia,South Atlantic Division,South Region,VA,51
47260,"Virginia Beach-Norfolk-Newport News, VA-NC",51,199,Virginia,South Atlantic Division,South Region,VA,51
22620,"Forrest City, AR",5,123,Arkansas,West South Central Division,South Region,AR,5
40220,"Roanoke, VA",51,23,Virginia,South Atlantic Division,South Region,VA,51
30780,"Little Rock-North Little Rock-Conway, AR",5,125,Arkansas,West South Central Division,South Region,AR,5
16820,"Charlottesville, VA",51,29,Virginia,South Atlantic Division,South Region,VA,51
15780,"Camden, AR",5,13,Arkansas,West South Central Division,South Region,AR,5
16820,"Charlottesville, VA",51,3,Virginia,South Atlantic Division,South Region,VA,51
22900,"Fort Smith, AR-OK",5,131,Arkansas,West South Central Division,South Region,AR,5
31340,"Lynchburg, VA",51,31,Virginia,South Atlantic Division,South Region,VA,51
40060,"Richmond, VA",51,33,Virginia,South Atlantic Division,South Region,VA,51
40060,"Richmond, VA",51,36,Virginia,South Atlantic Division,South Region,VA,51
20980,"El Dorado, AR",5,139,Arkansas,West South Central Division,South Region,AR,5
40060,"Richmond, VA",51,41,Virginia,South Atlantic Division,South Region,VA,51
22220,"Fayetteville-Springdale-Rogers, AR-MO",5,143,Arkansas,West South Central Division,South Region,AR,5
47900,"Washington-Arlington-Alexandria, DC-VA-MD-WV",51,43,Virginia,South Atlantic Division,South Region,VA,11
40220,"Roanoke, VA",51,45,Virginia,South Atlantic Division,South Region,VA,51
42620,"Searcy, AR",5,145,Arkansas,West South Central Division,South Region,AR,5
47900,"Washington-Arlington-Alexandria, DC-VA-MD-WV",51,47,Virginia,South Atlantic Division,South Region,VA,11
40780,"Russellville, AR",5,149,Arkansas,West South Central Division,South Region,AR,5
13720,"Big Stone Gap, VA",51,51,Virginia,South Atlantic Division,South Region,VA,51
47900,"Washington-Arlington-Alexandria, DC-VA-MD-WV",51,510,Virginia,South Atlantic Division,South Region,VA,11
28700,"Kingsport-Bristol-Bristol, TN-VA",51,520,Virginia,East South Central Division,South Region,VA,47
40060,"Richmond, VA",51,53,Virginia,South Atlantic Division,South Region,VA,51
16820,"Charlottesville, VA",51,540,Virginia,South Atlantic Division,South Region,VA,51
47260,"Virginia Beach-Norfolk-Newport News, VA-NC",51,550,Virginia,South Atlantic Division,South Region,VA,51
40060,"Richmond, VA",51,570,Virginia,South Atlantic Division,South Region,VA,51
47900,"Washington-Arlington-Alexandria, DC-VA-MD-WV",51,59,Virginia,South Atlantic Division,South Region,VA,11
19260,"Danville, VA",51,590,Virginia,South Atlantic Division,South Region,VA,51
47900,"Washington-Arlington-Alexandria, DC-VA-MD-WV",51,600,Virginia,South Atlantic Division,South Region,VA,11
47900,"Washington-Arlington-Alexandria, DC-VA-MD-WV",51,61,Virginia,South Atlantic Division,South Region,VA,11
47900,"Washington-Arlington-Alexandria, DC-VA-MD-WV",51,610,Virginia,South Atlantic Division,South Region,VA,11
13980,"Blacksburg-Christiansburg-Radford, VA",51,63,Virginia,South Atlantic Division,South Region,VA,51
47900,"Washington-Arlington-Alexandria, DC-VA-MD-WV",51,630,Virginia,South Atlantic Division,South Region,VA,11
16820,"Charlottesville, VA",51,65,Virginia,South Atlantic Division,South Region,VA,51
47260,"Virginia Beach-Norfolk-Newport News, VA-NC",51,650,Virginia,South Atlantic Division,South Region,VA,51
25500,"Harrisonburg, VA",51,660,Virginia,South Atlantic Division,South Region,VA,51
40220,"Roanoke, VA",51,67,Virginia,South Atlantic Division,South Region,VA,51
40060,"Richmond, VA",51,670,Virginia,South Atlantic Division,South Region,VA,51
31340,"Lynchburg, VA",51,680,Virginia,South Atlantic Division,South Region,VA,51
47900,"Washington-Arlington-Alexandria, DC-VA-MD-WV",51,683,Virginia,South Atlantic Division,South Region,VA,11
47900,"Washington-Arlington-Alexandria, DC-VA-MD-WV",51,685,Virginia,South Atlantic Division,South Region,VA,11
49020,"Winchester, VA-WV",51,69,Virginia,South Atlantic Division,South Region,VA,51
32300,"Martinsville, VA",51,690,Virginia,South Atlantic Division,South Region,VA,51
40060,"Richmond, VA",51,7,Virginia,South Atlantic Division,South Region,VA,51
47260,"Virginia Beach-Norfolk-Newport News, VA-NC",51,700,Virginia,South Atlantic Division,South Region,VA,51
13980,"Blacksburg-Christiansburg-Radford, VA",51,71,Virginia,South Atlantic Division,South Region,VA,51
47260,"Virginia Beach-Norfolk-Newport News, VA-NC",51,710,Virginia,South Atlantic Division,South Region,VA,51
13720,"Big Stone Gap, VA",51,720,Virginia,South Atlantic Division,South Region,VA,51
47260,"Virginia Beach-Norfolk-Newport News, VA-NC",51,73,Virginia,South Atlantic Division,South Region,VA,51
40060,"Richmond, VA",51,730,Virginia,South Atlantic Division,South Region,VA,51
47260,"Virginia Beach-Norfolk-Newport News, VA-NC",51,735,Virginia,South Atlantic Division,South Region,VA,51
47260,"Virginia Beach-Norfolk-Newport News, VA-NC",51,740,Virginia,South Atlantic Division,South Region,VA,51
40060,"Richmond, VA",51,75,Virginia,South Atlantic Division,South Region,VA,51
13980,"Blacksburg-Christiansburg-Radford, VA",51,750,Virginia,South Atlantic Division,South Region,VA,51
40060,"Richmond, VA",51,760,Virginia,South Atlantic Division,South Region,VA,51
40220,"Roanoke, VA",51,770,Virginia,South Atlantic Division,South Region,VA,51
40220,"Roanoke, VA",51,775,Virginia,South Atlantic Division,South Region,VA,51
16820,"Charlottesville, VA",51,79,Virginia,South Atlantic Division,South Region,VA,51
44420,"Staunton-Waynesboro, VA",51,790,Virginia,South Atlantic Division,South Region,VA,51
47260,"Virginia Beach-Norfolk-Newport News, VA-NC",51,800,Virginia,South Atlantic Division,South Region,VA,51
47260,"Virginia Beach-Norfolk-Newport News, VA-NC",51,810,Virginia,South Atlantic Division,South Region,VA,51
44420,"Staunton-Waynesboro, VA",51,820,Virginia,South Atlantic Division,South Region,VA,51
47260,"Virginia Beach-Norfolk-Newport News, VA-NC",51,830,Virginia,South Atlantic Division,South Region,VA,51
49020,"Winchester, VA-WV",51,840,Virginia,South Atlantic Division,South Region,VA,51
40060,"Richmond, VA",51,85,Virginia,South Atlantic Division,South Region,VA,51
40060,"Richmond, VA",51,87,Virginia,South Atlantic Division,South Region,VA,51
32300,"Martinsville, VA",51,89,Virginia,South Atlantic Division,South Region,VA,51
11660,"Arkadelphia, AR",5,19,Arkansas,West South Central Division,South Region,AR,5
31340,"Lynchburg, VA",51,9,Virginia,South Atlantic Division,South Region,VA,51
47260,"Virginia Beach-Norfolk-Newport News, VA-NC",51,93,Virginia,South Atlantic Division,South Region,VA,51
47260,"Virginia Beach-Norfolk-Newport News, VA-NC",51,95,Virginia,South Atlantic Division,South Region,VA,51
38220,"Pine Bluff, AR",5,25,Arkansas,West South Central Division,South Region,AR,5
31620,"Magnolia, AR",5,27,Arkansas,West South Central Division,South Region,AR,5
27860,"Jonesboro, AR",5,31,Arkansas,West South Central Division,South Region,AR,5
36830,"Othello, WA",53,1,Washington,Pacific Division,West Region,WA,53
38900,"Portland-Vancouver-Hillsboro, OR-WA",53,11,Washington,Pacific Division,West Region,WA,41
47460,"Walla Walla, WA",53,13,Washington,Pacific Division,West Region,WA,53
31020,"Longview, WA",53,15,Washington,Pacific Division,West Region,WA,53
48300,"Wenatchee, WA",53,17,Washington,Pacific Division,West Region,WA,53
28420,"Kennewick-Richland, WA",53,21,Washington,Pacific Division,West Region,WA,53
34180,"Moses Lake, WA",53,25,Washington,Pacific Division,West Region,WA,53
10140,"Aberdeen, WA",53,27,Washington,Pacific Division,West Region,WA,53
36020,"Oak Harbor, WA",53,29,Washington,Pacific Division,West Region,WA,53
22900,"Fort Smith, AR-OK",5,33,Arkansas,West South Central Division,South Region,AR,5
30300,"Lewiston, ID-WA",53,3,Washington,Mountain Division,West Region,WA,16
42660,"Seattle-Tacoma-Bellevue, WA",53,33,Washington,Pacific Division,West Region,WA,53
14740,"Bremerton-Silverdale, WA",53,35,Washington,Pacific Division,West Region,WA,53
21260,"Ellensburg, WA",53,37,Washington,Pacific Division,West Region,WA,53
16500,"Centralia, WA",53,41,Washington,Pacific Division,West Region,WA,53
43220,"Shelton, WA",53,45,Washington,Pacific Division,West Region,WA,53
28420,"Kennewick-Richland, WA",53,5,Washington,Pacific Division,West Region,WA,53
32820,"Memphis, TN-MS-AR",5,35,Arkansas,East South Central Division,South Region,AR,47
44060,"Spokane-Spokane Valley, WA",53,51,Washington,Pacific Division,West Region,WA,53
42660,"Seattle-Tacoma-Bellevue, WA",53,53,Washington,Pacific Division,West Region,WA,53
34580,"Mount Vernon-Anacortes, WA",53,57,Washington,Pacific Division,West Region,WA,53
38900,"Portland-Vancouver-Hillsboro, OR-WA",53,59,Washington,Pacific Division,West Region,WA,41
42660,"Seattle-Tacoma-Bellevue, WA",53,61,Washington,Pacific Division,West Region,WA,53
44060,"Spokane-Spokane Valley, WA",53,63,Washington,Pacific Division,West Region,WA,53
44060,"Spokane-Spokane Valley, WA",53,65,Washington,Pacific Division,West Region,WA,53
36500,"Olympia-Tumwater, WA",53,67,Washington,Pacific Division,West Region,WA,53
48300,"Wenatchee, WA",53,7,Washington,Pacific Division,West Region,WA,53
47460,"Walla Walla, WA",53,71,Washington,Pacific Division,West Region,WA,53
13380,"Bellingham, WA",53,73,Washington,Pacific Division,West Region,WA,53
39420,"Pullman, WA",53,75,Washington,Pacific Division,West Region,WA,53
49420,"Yakima, WA",53,77,Washington,Pacific Division,West Region,WA,53
38820,"Port Angeles, WA",53,9,Washington,Pacific Division,West Region,WA,53
37620,"Parkersburg-Vienna, WV",54,105,West Virginia,South Atlantic Division,South Region,WV,54
37620,"Parkersburg-Vienna, WV",54,107,West Virginia,South Atlantic Division,South Region,WV,54
26580,"Huntington-Ashland, WV-KY-OH",54,11,West Virginia,South Atlantic Division,South Region,WV,54
16620,"Charleston, WV",54,15,West Virginia,South Atlantic Division,South Region,WV,54
17220,"Clarksburg, WV",54,17,West Virginia,South Atlantic Division,South Region,WV,54
13220,"Beckley, WV",54,19,West Virginia,South Atlantic Division,South Region,WV,54
49020,"Winchester, VA-WV",54,27,West Virginia,South Atlantic Division,South Region,WV,51
48260,"Weirton-Steubenville, WV-OH",54,29,West Virginia,South Atlantic Division,South Region,WV,54
25180,"Hagerstown-Martinsburg, MD-WV",54,3,West Virginia,South Atlantic Division,South Region,WV,24
17220,"Clarksburg, WV",54,33,West Virginia,South Atlantic Division,South Region,WV,54
47900,"Washington-Arlington-Alexandria, DC-VA-MD-WV",54,37,West Virginia,South Atlantic Division,South Region,WV,11
16620,"Charleston, WV",54,39,West Virginia,South Atlantic Division,South Region,WV,54
26580,"Huntington-Ashland, WV-KY-OH",54,43,West Virginia,South Atlantic Division,South Region,WV,54
30880,"Logan, WV",54,45,West Virginia,South Atlantic Division,South Region,WV,54
21900,"Fairmont, WV",54,49,West Virginia,South Atlantic Division,South Region,WV,54
16620,"Charleston, WV",54,5,West Virginia,South Atlantic Division,South Region,WV,54
30780,"Little Rock-North Little Rock-Conway, AR",5,45,Arkansas,West South Central Division,South Region,AR,5
48540,"Wheeling, WV-OH",54,51,West Virginia,South Atlantic Division,South Region,WV,54
38580,"Point Pleasant, WV-OH",54,53,West Virginia,South Atlantic Division,South Region,WV,54
14140,"Bluefield, WV-VA",54,55,West Virginia,South Atlantic Division,South Region,WV,54
19060,"Cumberland, MD-WV",54,57,West Virginia,South Atlantic Division,South Region,WV,24
34060,"Morgantown, WV",54,61,West Virginia,South Atlantic Division,South Region,WV,54
48540,"Wheeling, WV-OH",54,69,West Virginia,South Atlantic Division,South Region,WV,54
34060,"Morgantown, WV",54,77,West Virginia,South Atlantic Division,South Region,WV,54
26580,"Huntington-Ashland, WV-KY-OH",54,79,West Virginia,South Atlantic Division,South Region,WV,54
13220,"Beckley, WV",54,81,West Virginia,South Atlantic Division,South Region,WV,54
21180,"Elkins, WV",54,83,West Virginia,South Atlantic Division,South Region,WV,54
48260,"Weirton-Steubenville, WV-OH",54,9,West Virginia,South Atlantic Division,South Region,WV,54
17220,"Clarksburg, WV",54,91,West Virginia,South Atlantic Division,South Region,WV,54
26580,"Huntington-Ashland, WV-KY-OH",54,99,West Virginia,South Atlantic Division,South Region,WV,54
34260,"Mountain Home, AR",5,5,Arkansas,West South Central Division,South Region,AR,5
26300,"Hot Springs, AR",5,51,Arkansas,West South Central Division,South Region,AR,5
39540,"Racine, WI",55,101,Wisconsin,East North Central Division,Midwest Region,WI,55
27500,"Janesville-Beloit, WI",55,105,Wisconsin,East North Central Division,Midwest Region,WI,55
33460,"Minneapolis-St. Paul-Bloomington, MN-WI",55,109,Wisconsin,West North Central Division,Midwest Region,WI,27
12660,"Baraboo, WI",55,111,Wisconsin,East North Central Division,Midwest Region,WI,55
43020,"Shawano, WI",55,115,Wisconsin,East North Central Division,Midwest Region,WI,55
43100,"Sheboygan, WI",55,117,Wisconsin,East North Central Division,Midwest Region,WI,55
48580,"Whitewater-Elkhorn, WI",55,127,Wisconsin,East North Central Division,Midwest Region,WI,55
33340,"Milwaukee-Waukesha-West Allis, WI",55,131,Wisconsin,East North Central Division,Midwest Region,WI,55
33340,"Milwaukee-Waukesha-West Allis, WI",55,133,Wisconsin,East North Central Division,Midwest Region,WI,55
36780,"Oshkosh-Neenah, WI",55,139,Wisconsin,East North Central Division,Midwest Region,WI,55
49220,"Wisconsin Rapids-Marshfield, WI",55,141,Wisconsin,East North Central Division,Midwest Region,WI,55
11540,"Appleton, WI",55,15,Wisconsin,East North Central Division,Midwest Region,WI,55
20740,"Eau Claire, WI",55,17,Wisconsin,East North Central Division,Midwest Region,WI,55
31540,"Madison, WI",55,21,Wisconsin,East North Central Division,Midwest Region,WI,55
31540,"Madison, WI",55,25,Wisconsin,East North Central Division,Midwest Region,WI,55
13180,"Beaver Dam, WI",55,27,Wisconsin,East North Central Division,Midwest Region,WI,55
30780,"Little Rock-North Little Rock-Conway, AR",5,53,Arkansas,West South Central Division,South Region,AR,5
20260,"Duluth, MN-WI",55,31,Wisconsin,West North Central Division,Midwest Region,WI,27
32860,"Menomonie, WI",55,33,Wisconsin,East North Central Division,Midwest Region,WI,55
20740,"Eau Claire, WI",55,35,Wisconsin,East North Central Division,Midwest Region,WI,55
27020,"Iron Mountain, MI-WI",55,37,Wisconsin,East North Central Division,Midwest Region,WI,26
22540,"Fond du Lac, WI",55,39,Wisconsin,East North Central Division,Midwest Region,WI,55
38420,"Platteville, WI",55,43,Wisconsin,East North Central Division,Midwest Region,WI,55
31540,"Madison, WI",55,45,Wisconsin,East North Central Division,Midwest Region,WI,55
31540,"Madison, WI",55,49,Wisconsin,East North Central Division,Midwest Region,WI,55
37500,"Paragould, AR",5,55,Arkansas,West South Central Division,South Region,AR,5
48020,"Watertown-Fort Atkinson, WI",55,55,Wisconsin,East North Central Division,Midwest Region,WI,55
16980,"Chicago-Naperville-Elgin, IL-IN-WI",55,59,Wisconsin,East North Central Division,Midwest Region,WI,17
24580,"Green Bay, WI",55,61,Wisconsin,East North Central Division,Midwest Region,WI,55
29100,"La Crosse-Onalaska, WI-MN",55,63,Wisconsin,East North Central Division,Midwest Region,WI,55
32980,"Merrill, WI",55,69,Wisconsin,East North Central Division,Midwest Region,WI,55
26260,"Hope, AR",5,57,Arkansas,West South Central Division,South Region,AR,5
31820,"Manitowoc, WI",55,71,Wisconsin,East North Central Division,Midwest Region,WI,55
48140,"Wausau, WI",55,73,Wisconsin,East North Central Division,Midwest Region,WI,55
31940,"Marinette, WI-MI",55,75,Wisconsin,East North Central Division,Midwest Region,WI,55
43020,"Shawano, WI",55,78,Wisconsin,East North Central Division,Midwest Region,WI,55
33340,"Milwaukee-Waukesha-West Allis, WI",55,79,Wisconsin,East North Central Division,Midwest Region,WI,55
24580,"Green Bay, WI",55,83,Wisconsin,East North Central Division,Midwest Region,WI,55
11540,"Appleton, WI",55,87,Wisconsin,East North Central Division,Midwest Region,WI,55
33340,"Milwaukee-Waukesha-West Allis, WI",55,89,Wisconsin,East North Central Division,Midwest Region,WI,55
24580,"Green Bay, WI",55,9,Wisconsin,East North Central Division,Midwest Region,WI,55
31680,"Malvern, AR",5,59,Arkansas,West South Central Division,South Region,AR,5
33460,"Minneapolis-St. Paul-Bloomington, MN-WI",55,93,Wisconsin,West North Central Division,Midwest Region,WI,27
44620,"Stevens Point, WI",55,97,Wisconsin,East North Central Division,Midwest Region,WI,55
29660,"Laramie, WY",56,1,Wyoming,Mountain Division,West Region,WY,56
40180,"Riverton, WY",56,13,Wyoming,Mountain Division,West Region,WY,56
16940,"Cheyenne, WY",56,21,Wyoming,Mountain Division,West Region,WY,56
16220,"Casper, WY",56,25,Wyoming,Mountain Division,West Region,WY,56
12900,"Batesville, AR",5,63,Arkansas,West South Central Division,South Region,AR,5
43260,"Sheridan, WY",56,33,Wyoming,Mountain Division,West Region,WY,56
40540,"Rock Springs, WY",56,37,Wyoming,Mountain Division,West Region,WY,56
27220,"Jackson, WY-ID",56,39,Wyoming,Mountain Division,West Region,WY,56
21740,"Evanston, WY",56,41,Wyoming,Mountain Division,West Region,WY,56
23940,"Gillette, WY",56,5,Wyoming,Mountain Division,West Region,WY,56
38220,"Pine Bluff, AR",5,69,Arkansas,West South Central Division,South Region,AR,5
22220,"Fayetteville-Springdale-Rogers, AR-MO",5,7,Arkansas,West South Central Division,South Region,AR,5
38220,"Pine Bluff, AR",5,79,Arkansas,West South Central Division,South Region,AR,5
45500,"Texarkana, TX-AR",5,81,Arkansas,West South Central Division,South Region,AR,48
30780,"Little Rock-North Little Rock-Conway, AR",5,85,Arkansas,West South Central Division,South Region,AR,5
22220,"Fayetteville-Springdale-Rogers, AR-MO",5,87,Arkansas,West South Central Division,South Region,AR,5
25460,"Harrison, AR",5,9,Arkansas,West South Central Division,South Region,AR,5
45500,"Texarkana, TX-AR",5,91,Arkansas,West South Central Division,South Region,AR,48
14180,"Blytheville, AR",5,93,Arkansas,West South Central Division,South Region,AR,5
26260,"Hope, AR",5,99,Arkansas,West South Central Division,South Region,AR,5
41860,"San Francisco-Oakland-Hayward, CA",6,1,California,Pacific Division,West Region,CA,6
49700,"Yuba City, CA",6,101,California,Pacific Division,West Region,CA,6
39780,"Red Bluff, CA",6,103,California,Pacific Division,West Region,CA,6
47300,"Visalia-Porterville, CA",6,107,California,Pacific Division,West Region,CA,6
43760,"Sonora, CA",6,109,California,Pacific Division,West Region,CA,6
37100,"Oxnard-Thousand Oaks-Ventura, CA",6,111,California,Pacific Division,West Region,CA,6
40900,"Sacramento--Roseville--Arden-Arcade, CA",6,113,California,Pacific Division,West Region,CA,6
49700,"Yuba City, CA",6,115,California,Pacific Division,West Region,CA,6
41860,"San Francisco-Oakland-Hayward, CA",6,13,California,Pacific Division,West Region,CA,6
18860,"Crescent City, CA",6,15,California,Pacific Division,West Region,CA,6
40900,"Sacramento--Roseville--Arden-Arcade, CA",6,17,California,Pacific Division,West Region,CA,6
23420,"Fresno, CA",6,19,California,Pacific Division,West Region,CA,6
21700,"Eureka-Arcata-Fortuna, CA",6,23,California,Pacific Division,West Region,CA,6
20940,"El Centro, CA",6,25,California,Pacific Division,West Region,CA,6
12540,"Bakersfield, CA",6,29,California,Pacific Division,West Region,CA,6
25260,"Hanford-Corcoran, CA",6,31,California,Pacific Division,West Region,CA,6
17340,"Clearlake, CA",6,33,California,Pacific Division,West Region,CA,6
45000,"Susanville, CA",6,35,California,Pacific Division,West Region,CA,6
31080,"Los Angeles-Long Beach-Anaheim, CA",6,37,California,Pacific Division,West Region,CA,6
31460,"Madera, CA",6,39,California,Pacific Division,West Region,CA,6
41860,"San Francisco-Oakland-Hayward, CA",6,41,California,Pacific Division,West Region,CA,6
46380,"Ukiah, CA",6,45,California,Pacific Division,West Region,CA,6
32900,"Merced, CA",6,47,California,Pacific Division,West Region,CA,6
41500,"Salinas, CA",6,53,California,Pacific Division,West Region,CA,6
34900,"Napa, CA",6,55,California,Pacific Division,West Region,CA,6
46020,"Truckee-Grass Valley, CA",6,57,California,Pacific Division,West Region,CA,6
31080,"Los Angeles-Long Beach-Anaheim, CA",6,59,California,Pacific Division,West Region,CA,6
40900,"Sacramento--Roseville--Arden-Arcade, CA",6,61,California,Pacific Division,West Region,CA,6
40140,"Riverside-San Bernardino-Ontario, CA",6,65,California,Pacific Division,West Region,CA,6
40900,"Sacramento--Roseville--Arden-Arcade, CA",6,67,California,Pacific Division,West Region,CA,6
41940,"San Jose-Sunnyvale-Santa Clara, CA",6,69,California,Pacific Division,West Region,CA,6
17020,"Chico, CA",6,7,California,Pacific Division,West Region,CA,6
40140,"Riverside-San Bernardino-Ontario, CA",6,71,California,Pacific Division,West Region,CA,6
41740,"San Diego-Carlsbad, CA",6,73,California,Pacific Division,West Region,CA,6
41860,"San Francisco-Oakland-Hayward, CA",6,75,California,Pacific Division,West Region,CA,6
44700,"Stockton-Lodi, CA",6,77,California,Pacific Division,West Region,CA,6
42020,"San Luis Obispo-Paso Robles-Arroyo Grande, CA",6,79,California,Pacific Division,West Region,CA,6
41860,"San Francisco-Oakland-Hayward, CA",6,81,California,Pacific Division,West Region,CA,6
42200,"Santa Maria-Santa Barbara, CA",6,83,California,Pacific Division,West Region,CA,6
41940,"San Jose-Sunnyvale-Santa Clara, CA",6,85,California,Pacific Division,West Region,CA,6
42100,"Santa Cruz-Watsonville, CA",6,87,California,Pacific Division,West Region,CA,6
39820,"Redding, CA",6,89,California,Pacific Division,West Region,CA,6
46700,"Vallejo-Fairfield, CA",6,95,California,Pacific Division,West Region,CA,6
42220,"Santa Rosa, CA",6,97,California,Pacific Division,West Region,CA,6
33700,"Modesto, CA",6,99,California,Pacific Division,West Region,CA,6
19740,"Denver-Aurora-Lakewood, CO",8,1,Colorado,Mountain Division,West Region,CO,8
39380,"Pueblo, CO",8,101,Colorado,Mountain Division,West Region,CO,8
44460,"Steamboat Springs, CO",8,107,Colorado,Mountain Division,West Region,CO,8
14720,"Breckenridge, CO",8,117,Colorado,Mountain Division,West Region,CO,8
17820,"Colorado Springs, CO",8,119,Colorado,Mountain Division,West Region,CO,8
24540,"Greeley, CO",8,123,Colorado,Mountain Division,West Region,CO,8
14500,"Boulder, CO",8,13,Colorado,Mountain Division,West Region,CO,8
19740,"Denver-Aurora-Lakewood, CO",8,14,Colorado,Mountain Division,West Region,CO,8
19740,"Denver-Aurora-Lakewood, CO",8,19,Colorado,Mountain Division,West Region,CO,8
19740,"Denver-Aurora-Lakewood, CO",8,31,Colorado,Mountain Division,West Region,CO,8
19740,"Denver-Aurora-Lakewood, CO",8,35,Colorado,Mountain Division,West Region,CO,8
20780,"Edwards, CO",8,37,Colorado,Mountain Division,West Region,CO,8
19740,"Denver-Aurora-Lakewood, CO",8,39,Colorado,Mountain Division,West Region,CO,8
17820,"Colorado Springs, CO",8,41,Colorado,Mountain Division,West Region,CO,8
15860,"Caon City, CO",8,43,Colorado,Mountain Division,West Region,CO,8
24060,"Glenwood Springs, CO",8,45,Colorado,Mountain Division,West Region,CO,8
19740,"Denver-Aurora-Lakewood, CO",8,47,Colorado,Mountain Division,West Region,CO,8
19740,"Denver-Aurora-Lakewood, CO",8,5,Colorado,Mountain Division,West Region,CO,8
19740,"Denver-Aurora-Lakewood, CO",8,59,Colorado,Mountain Division,West Region,CO,8
20420,"Durango, CO",8,67,Colorado,Mountain Division,West Region,CO,8
22660,"Fort Collins, CO",8,69,Colorado,Mountain Division,West Region,CO,8
44540,"Sterling, CO",8,75,Colorado,Mountain Division,West Region,CO,8
24300,"Grand Junction, CO",8,77,Colorado,Mountain Division,West Region,CO,8
18780,"Craig, CO",8,81,Colorado,Mountain Division,West Region,CO,8
33940,"Montrose, CO",8,85,Colorado,Mountain Division,West Region,CO,8
22820,"Fort Morgan, CO",8,87,Colorado,Mountain Division,West Region,CO,8
19740,"Denver-Aurora-Lakewood, CO",8,93,Colorado,Mountain Division,West Region,CO,8
24060,"Glenwood Springs, CO",8,97,Colorado,Mountain Division,West Region,CO,8
14860,"Bridgeport-Stamford-Norwalk, CT",9,1,Connecticut,New England Division,Northeast Region,CT,9
35980,"Norwich-New London, CT",9,11,Connecticut,New England Division,Northeast Region,CT,9
25540,"Hartford-West Hartford-East Hartford, CT",9,13,Connecticut,New England Division,Northeast Region,CT,9
49340,"Worcester, MA-CT",9,15,Connecticut,New England Division,Northeast Region,CT,9
25540,"Hartford-West Hartford-East Hartford, CT",9,3,Connecticut,New England Division,Northeast Region,CT,9
45860,"Torrington, CT",9,5,Connecticut,New England Division,Northeast Region,CT,9
25540,"Hartford-West Hartford-East Hartford, CT",9,7,Connecticut,New England Division,Northeast Region,CT,9
35300,"New Haven-Milford, CT",9,9,Connecticut,New England Division,Northeast Region,CT,9
